{
"type": "FeatureCollection",
"name": "rastatt_example_zones_25832",
"crs": { "type": "name", "properties": { "name": "urn:ogc:def:crs:EPSG::25832" } },
"features": [
{ "type": "Feature", "properties": { "NO": 6113, "NAME": "Rastatt", "typ": 1 }, "geometry": { "type": "MultiPolygon", "coordinates": [ [ [ [ 441566.6212, 5411591.2089 ], [ 441350.414500000013504, 5411855.108900000341237 ], [ 441142.544600000022911, 5411982.555200000293553 ], [ 441249.474029999983031, 5412012.557237000204623 ], [ 441311.446813000016846, 5411977.063373000361025 ], [ 441405.507976000022609, 5412032.473132000304759 ], [ 441548.87463099998422, 5412121.264488999731839 ], [ 441849.984400000015739, 5411605.922399999573827 ], [ 441783.783799999975599, 5411570.715400000102818 ], [ 441689.821400000015274, 5411555.722199999727309 ], [ 441566.6212, 5411591.2089 ] ] ] ] } },
{ "type": "Feature", "properties": { "NO": 6114, "NAME": "Rastatt", "typ": 1 }, "geometry": { "type": "MultiPolygon", "coordinates": [ [ [ [ 441249.474029999983031, 5412012.557237000204623 ], [ 441142.544600000022911, 5411982.555200000293553 ], [ 441091.066400000010617, 5412114.5027 ], [ 441113.058599999989383, 5412246.949300000444055 ], [ 441171.787100000015926, 5412503.3459 ], [ 441222.7844, 5412483.5208 ], [ 441274.736900000018068, 5412489.464599999599159 ], [ 441341.4806, 5412523.435200000181794 ], [ 441367.018700000015087, 5412518.941800000146031 ], [ 441398.9303, 5412431.308500000275671 ], [ 441428.837500000023283, 5412361.15500000026077 ], [ 441441.350900000019465, 5412302.096 ], [ 441548.87463099998422, 5412121.264488999731839 ], [ 441405.507976000022609, 5412032.473132000304759 ], [ 441311.446813000016846, 5411977.063373000361025 ], [ 441249.474029999983031, 5412012.557237000204623 ] ] ] ] } },
{ "type": "Feature", "properties": { "NO": 6115, "NAME": "Rastatt", "typ": 1 }, "geometry": { "type": "MultiPolygon", "coordinates": [ [ [ [ 441548.87463099998422, 5412121.264488999731839 ], [ 441651.972790000028908, 5412181.319648999720812 ], [ 441707.549798999971244, 5412164.107246000319719 ], [ 441852.861618000024464, 5412255.231712999753654 ], [ 441942.726000000024214, 5412303.4199 ], [ 442058.6777, 5412092.503600000403821 ], [ 442097.161100000026636, 5411956.0581 ], [ 442123.8997, 5411866.5938 ], [ 442065.4229, 5411834.607099999673665 ], [ 441977.207500000018626, 5411731.64919999986887 ], [ 441898.238499999977648, 5411646.683899999596179 ], [ 441849.984400000015739, 5411605.922399999573827 ], [ 441548.87463099998422, 5412121.264488999731839 ] ] ] ] } },
{ "type": "Feature", "properties": { "NO": 6116, "NAME": "Rastatt", "typ": 1 }, "geometry": { "type": "MultiPolygon", "coordinates": [ [ [ [ 441627.152899999986403, 5412451.977400000207126 ], [ 441732.5084, 5412453.110999999567866 ], [ 441800.2842, 5412425.372100000269711 ], [ 441942.726000000024214, 5412303.4199 ], [ 441852.861618000024464, 5412255.231712999753654 ], [ 441707.549798999971244, 5412164.107246000319719 ], [ 441651.972790000028908, 5412181.319648999720812 ], [ 441548.87463099998422, 5412121.264488999731839 ], [ 441441.350900000019465, 5412302.096 ], [ 441428.837500000023283, 5412361.15500000026077 ], [ 441398.9303, 5412431.308500000275671 ], [ 441367.018700000015087, 5412518.941800000146031 ], [ 441419.457, 5412523.433799999766052 ], [ 441505.4692, 5412496.831000000238419 ], [ 441627.152899999986403, 5412451.977400000207126 ] ] ] ] } },
{ "type": "Feature", "properties": { "NO": 6121, "NAME": "Rastatt", "typ": 1 }, "geometry": { "type": "MultiPolygon", "coordinates": [ [ [ [ 441287.2463, 5413182.572300000116229 ], [ 441370.593700000026729, 5413179.799700000323355 ], [ 441549.277, 5413143.245199999772012 ], [ 441765.97019999998156, 5413055.6371 ], [ 441945.4302, 5412950.110100000165403 ], [ 441894.765599999984261, 5412861.897699999623001 ], [ 441831.685300000011921, 5412733.278300000354648 ], [ 441694.9058, 5412642.363699999637902 ], [ 441627.152899999986403, 5412451.977400000207126 ], [ 441505.4692, 5412496.831000000238419 ], [ 441419.457, 5412523.433799999766052 ], [ 441367.018700000015087, 5412518.941800000146031 ], [ 441341.4806, 5412523.435200000181794 ], [ 441274.736900000018068, 5412489.464599999599159 ], [ 441222.7844, 5412483.5208 ], [ 441171.787100000015926, 5412503.3459 ], [ 441287.2463, 5413182.572300000116229 ] ] ] ] } },
{ "type": "Feature", "properties": { "NO": 6122, "NAME": "Rastatt", "typ": 1 }, "geometry": { "type": "MultiPolygon", "coordinates": [ [ [ [ 440812.2267, 5415444.7528 ], [ 440977.9584, 5415513.770200000144541 ], [ 442129.565500000026077, 5415129.377399999648333 ], [ 442146.935699999972712, 5414745.028900000266731 ], [ 442086.408400000014808, 5414669.465599999763072 ], [ 442176.488399999972899, 5414428.520499999634922 ], [ 442082.4362, 5414302.11629999987781 ], [ 442019.5133, 5414171.666500000283122 ], [ 442020.310799999977462, 5413654.654400000348687 ], [ 441864.718600000021979, 5413533.170800000429153 ], [ 441984.46740000002319, 5413313.0142 ], [ 442009.211399999971036, 5413180.807699999772012 ], [ 441982.7915, 5413014.878499999642372 ], [ 441945.4302, 5412950.110100000165403 ], [ 441765.97019999998156, 5413055.6371 ], [ 441549.277, 5413143.245199999772012 ], [ 441370.593700000026729, 5413179.799700000323355 ], [ 441287.2463, 5413182.572300000116229 ], [ 441308.2426, 5413757.341300000436604 ], [ 441273.257900000025984, 5413911.279799999669194 ], [ 441168.053000000014435, 5414261.639999999664724 ], [ 440957.8934, 5415011.8405 ], [ 440873.679500000027474, 5415285.2314 ], [ 440812.2267, 5415444.7528 ] ] ] ] } },
{ "type": "Feature", "properties": { "NO": 6133, "NAME": "Rastatt", "typ": 1 }, "geometry": { "type": "MultiPolygon", "coordinates": [ [ [ [ 441945.4302, 5412950.110100000165403 ], [ 442101.7548, 5412840.670300000347197 ], [ 442241.351100000028964, 5412781.255599999800324 ], [ 442265.136425999982748, 5412771.863273000344634 ], [ 442222.428083, 5412633.183338000439107 ], [ 442220.3492129999795, 5412572.682213 ], [ 442166.05505299998913, 5412520.926680999808013 ], [ 441942.726000000024214, 5412303.4199 ], [ 441800.2842, 5412425.372100000269711 ], [ 441732.5084, 5412453.110999999567866 ], [ 441627.152899999986403, 5412451.977400000207126 ], [ 441694.9058, 5412642.363699999637902 ], [ 441831.685300000011921, 5412733.278300000354648 ], [ 441894.765599999984261, 5412861.897699999623001 ], [ 441945.4302, 5412950.110100000165403 ] ] ] ] } },
{ "type": "Feature", "properties": { "NO": 6134, "NAME": "Rastatt", "typ": 1 }, "geometry": { "type": "MultiPolygon", "coordinates": [ [ [ [ 442220.3492129999795, 5412572.682213 ], [ 442222.428083, 5412633.183338000439107 ], [ 442265.136425999982748, 5412771.863273000344634 ], [ 442329.9398, 5412749.650100000202656 ], [ 442363.7118, 5412708.38219999987632 ], [ 442427.48609999998007, 5412591.785199999809265 ], [ 442478.21730000001844, 5412536.7018 ], [ 442525.6703, 5412495.292299999855459 ], [ 442548.9757, 5412433.6711 ], [ 442649.981199999980163, 5412445.825799999758601 ], [ 442499.752199999988079, 5412283.42339999973774 ], [ 442432.7781, 5412163.971900000236928 ], [ 442364.489799999981187, 5411998.49239999987185 ], [ 442314.341490000020713, 5411873.33170900028199 ], [ 442147.082388999988325, 5411828.570640999823809 ], [ 442123.8997, 5411866.5938 ], [ 442097.161100000026636, 5411956.0581 ], [ 442058.6777, 5412092.503600000403821 ], [ 441942.726000000024214, 5412303.4199 ], [ 442166.05505299998913, 5412520.926680999808013 ], [ 442220.3492129999795, 5412572.682213 ] ] ] ] } },
{ "type": "Feature", "properties": { "NO": 6135, "NAME": "Rastatt", "typ": 1 }, "geometry": { "type": "MultiPolygon", "coordinates": [ [ [ [ 442329.9398, 5412749.650100000202656 ], [ 442410.365755999984685, 5412966.12693199981004 ], [ 442437.491830000013579, 5413014.084981 ], [ 442572.758811999985483, 5413213.547263000160456 ], [ 442669.63499699998647, 5413314.207417 ], [ 442768.034632999973837, 5413332.818961 ], [ 442925.119872000010218, 5413439.647547 ], [ 442829.575702, 5413524.795183000154793 ], [ 443108.018823000020348, 5413762.35408 ], [ 443491.5859, 5413846.93059999961406 ], [ 443670.8394, 5413769.842400000430644 ], [ 443782.18, 5413721.960199999623001 ], [ 443974.0822, 5413292.941800000146031 ], [ 443946.081400000024587, 5413020.412200000137091 ], [ 443426.511400000017602, 5412967.7133 ], [ 443183.271400000026915, 5412847.067900000140071 ], [ 442959.372800000011921, 5412686.833499999716878 ], [ 442670.648500000010245, 5412468.167899999767542 ], [ 442649.981199999980163, 5412445.825799999758601 ], [ 442548.9757, 5412433.6711 ], [ 442525.6703, 5412495.292299999855459 ], [ 442478.21730000001844, 5412536.7018 ], [ 442427.48609999998007, 5412591.785199999809265 ], [ 442363.7118, 5412708.38219999987632 ], [ 442329.9398, 5412749.650100000202656 ] ] ] ] } },
{ "type": "Feature", "properties": { "NO": 6136, "NAME": "Rastatt", "typ": 1 }, "geometry": { "type": "MultiPolygon", "coordinates": [ [ [ [ 442241.351100000028964, 5412781.255599999800324 ], [ 442101.7548, 5412840.670300000347197 ], [ 441945.4302, 5412950.110100000165403 ], [ 441982.7915, 5413014.878499999642372 ], [ 442009.211399999971036, 5413180.807699999772012 ], [ 441984.46740000002319, 5413313.0142 ], [ 441864.718600000021979, 5413533.170800000429153 ], [ 442020.310799999977462, 5413654.654400000348687 ], [ 442019.5133, 5414171.666500000283122 ], [ 442082.4362, 5414302.11629999987781 ], [ 442176.488399999972899, 5414428.520499999634922 ], [ 442086.408400000014808, 5414669.465599999763072 ], [ 442146.935699999972712, 5414745.028900000266731 ], [ 442271.734400000015739, 5414706.619 ], [ 443004.315599000023212, 5415160.829276000149548 ], [ 443286.397300000011455, 5415060.681900000199676 ], [ 443429.97019999998156, 5414919.392199999652803 ], [ 443421.8981, 5414849.373800000175834 ], [ 443407.478599999973085, 5414779.223899999633431 ], [ 443377.059, 5414715.091799999587238 ], [ 443346.3102, 5414666.828200000338256 ], [ 443290.559300000022631, 5414613.138799999840558 ], [ 443382.637700000021141, 5414422.672899999655783 ], [ 443491.5859, 5413846.93059999961406 ], [ 443108.018823000020348, 5413762.35408 ], [ 442829.575702, 5413524.795183000154793 ], [ 442876.254746, 5413469.416353999637067 ], [ 442925.119872000010218, 5413439.647547 ], [ 442768.034632999973837, 5413332.818961 ], [ 442669.63499699998647, 5413314.207417 ], [ 442572.758811999985483, 5413213.547263000160456 ], [ 442437.491830000013579, 5413014.084981 ], [ 442410.365755999984685, 5412966.12693199981004 ], [ 442329.9398, 5412749.650100000202656 ], [ 442265.136425999982748, 5412771.863273000344634 ], [ 442241.351100000028964, 5412781.255599999800324 ] ] ] ] } },
{ "type": "Feature", "properties": { "NO": 6141, "NAME": "Rastatt", "typ": 1 }, "geometry": { "type": "MultiPolygon", "coordinates": [ [ [ [ 442314.341490000020713, 5411873.33170900028199 ], [ 442364.489799999981187, 5411998.49239999987185 ], [ 442432.7781, 5412163.971900000236928 ], [ 442499.752199999988079, 5412283.42339999973774 ], [ 442649.981199999980163, 5412445.825799999758601 ], [ 442670.648500000010245, 5412468.167899999767542 ], [ 442959.372800000011921, 5412686.833499999716878 ], [ 443183.271400000026915, 5412847.067900000140071 ], [ 443443.703568, 5412488.136915000155568 ], [ 443488.277849, 5412410.768354999832809 ], [ 443516.121099999989383, 5412259.980914999730885 ], [ 443519.611722, 5412151.908048000186682 ], [ 443484.759781999979168, 5411959.843421 ], [ 443335.873541, 5411701.087116000242531 ], [ 443145.815085, 5411419.530492999590933 ], [ 443130.546325, 5411345.456748999655247 ], [ 443083.829827999987174, 5411252.224391000345349 ], [ 442945.428239999979269, 5411222.464621 ], [ 442717.829737, 5411016.124396 ], [ 442740.645856000017375, 5411334.848481999710202 ], [ 442718.509872999973595, 5411521.894070999696851 ], [ 442569.800019000016619, 5411680.623363999649882 ], [ 442314.341490000020713, 5411873.33170900028199 ] ] ] ] } },
{ "type": "Feature", "properties": { "NO": 6142, "NAME": "Rastatt", "typ": 1 }, "geometry": { "type": "MultiPolygon", "coordinates": [ [ [ [ 443868.591399000026286, 5412444.048775999806821 ], [ 443943.050999999977648, 5412381.84250000026077 ], [ 444094.3935, 5412498.769100000150502 ], [ 444167.846200000029057, 5412447.7506 ], [ 444271.843099, 5412597.672876000404358 ], [ 444253.796599, 5412637.964076000265777 ], [ 444265.3812, 5412675.838700000196695 ], [ 444247.687599, 5412699.479976000264287 ], [ 444341.809699999983422, 5412698.540199999697506 ], [ 444458.8395, 5412634.801699999719858 ], [ 444549.966399000026286, 5412671.891876 ], [ 444756.801800000015646, 5412776.182400000281632 ], [ 444895.1187, 5412800.705400000326335 ], [ 443938.879200000024866, 5411089.09499999973923 ], [ 443864.955399999977089, 5410970.0296 ], [ 444005.825399999972433, 5410847.619800000451505 ], [ 443864.5049, 5410477.693099999800324 ], [ 444322.222599999979138, 5410057.200199999846518 ], [ 444207.864400000020396, 5409881.830799999646842 ], [ 443792.167399999976624, 5410012.200500000268221 ], [ 443375.882599, 5410102.791775999590755 ], [ 443188.3666, 5410186.261900000274181 ], [ 443158.875, 5410209.92960000038147 ], [ 442880.4325, 5410461.082499999552965 ], [ 442747.6031, 5410586.460900000296533 ], [ 442713.941811, 5410783.780562000349164 ], [ 442717.829737, 5411016.124396 ], [ 442945.428239999979269, 5411222.464621 ], [ 443083.829827999987174, 5411252.224391000345349 ], [ 443130.546325, 5411345.456748999655247 ], [ 443145.815085, 5411419.530492999590933 ], [ 443484.759781999979168, 5411959.843421 ], [ 443519.611722, 5412151.908048000186682 ], [ 443516.121099999989383, 5412259.980914999730885 ], [ 443488.277849, 5412410.768354999832809 ], [ 443443.703568, 5412488.136915000155568 ], [ 443183.271400000026915, 5412847.067900000140071 ], [ 443426.511400000017602, 5412967.7133 ], [ 443713.242199999978766, 5412994.360600000247359 ], [ 443946.081400000024587, 5413020.412200000137091 ], [ 443907.6028, 5412645.9035 ], [ 443876.337500000023283, 5412545.654 ], [ 443868.591399000026286, 5412444.048775999806821 ] ] ] ] } },
{ "type": "Feature", "properties": { "NO": 6152, "NAME": "Rastatt", "typ": 1 }, "geometry": { "type": "MultiPolygon", "coordinates": [ [ [ [ 441137.305500000016764, 5411728.579300000332296 ], [ 441198.9497, 5411678.5992 ], [ 441263.207899999979418, 5411627.282200000248849 ], [ 441306.527, 5411583.170599999837577 ], [ 441351.286000000021886, 5411509.3575 ], [ 441378.791099999973085, 5411460.173000000417233 ], [ 441427.999499999976251, 5411309.474600000306964 ], [ 441480.0786, 5411265.269999999552965 ], [ 441580.62699999997858, 5411166.4211 ], [ 441613.7733, 5411153.849700000137091 ], [ 442181.9791, 5411055.376799999736249 ], [ 442249.93670000002021, 5411021.491600000299513 ], [ 442361.7967, 5410949.95990000013262 ], [ 442287.384299999976065, 5410731.1404 ], [ 442172.369400000025053, 5410545.123999999836087 ], [ 441908.627099999983329, 5410419.755300000309944 ], [ 441690.3076, 5410333.346 ], [ 441556.286100000026636, 5410275.623100000433624 ], [ 441570.8592, 5410333.7138 ], [ 441549.6187, 5410444.169599999673665 ], [ 441444.6617, 5410549.1283 ], [ 441281.479, 5410770.040900000371039 ], [ 440966.108, 5411069.923100000247359 ], [ 440755.694599999987986, 5411322.3235 ], [ 440613.753399999986868, 5411553.731700000353158 ], [ 440814.5833, 5411568.030500000342727 ], [ 440990.918200000014622, 5411632.581000000238419 ], [ 441137.305500000016764, 5411728.579300000332296 ] ] ] ] } },
{ "type": "Feature", "properties": { "NO": 6153, "NAME": "Rastatt", "typ": 1 }, "geometry": { "type": "MultiPolygon", "coordinates": [ [ [ [ 442049.509968, 5411344.846438 ], [ 442079.208351999986917, 5411506.739536000415683 ], [ 442095.974055, 5411595.337201000191271 ], [ 442113.280508, 5411684.485174999572337 ], [ 442134.359529, 5411788.01322599966079 ], [ 442137.003763000015169, 5411823.705701 ], [ 442314.341490000020713, 5411873.33170900028199 ], [ 442569.800019000016619, 5411680.623363999649882 ], [ 442718.509872999973595, 5411521.894070999696851 ], [ 442740.645856000017375, 5411334.848481999710202 ], [ 442717.829737, 5411016.124396 ], [ 442713.941811, 5410783.780562000349164 ], [ 442747.6031, 5410586.460900000296533 ], [ 442533.976598999986891, 5410829.007075999863446 ], [ 442361.7967, 5410949.95990000013262 ], [ 442249.93670000002021, 5411021.491600000299513 ], [ 442181.9791, 5411055.376799999736249 ], [ 442185.463172000017948, 5411102.61638499982655 ], [ 442145.967461000022013, 5411176.063588 ], [ 442064.230812, 5411228.584575000219047 ], [ 442037.374186999979429, 5411271.264775999821723 ], [ 442049.509968, 5411344.846438 ] ] ] ] } },
{ "type": "Feature", "properties": { "NO": 6154, "NAME": "Rastatt", "typ": 1 }, "geometry": { "type": "MultiPolygon", "coordinates": [ [ [ [ 441137.305500000016764, 5411728.579300000332296 ], [ 441350.414500000013504, 5411855.108900000341237 ], [ 441566.6212, 5411591.2089 ], [ 441689.821400000015274, 5411555.722199999727309 ], [ 441783.783799999975599, 5411570.715400000102818 ], [ 441849.984400000015739, 5411605.922399999573827 ], [ 441898.238499999977648, 5411646.683899999596179 ], [ 441977.207500000018626, 5411731.64919999986887 ], [ 442065.4229, 5411834.607099999673665 ], [ 442123.8997, 5411866.5938 ], [ 442137.003763000015169, 5411823.705701 ], [ 442134.359529, 5411788.01322599966079 ], [ 442113.280508, 5411684.485174999572337 ], [ 442095.974055, 5411595.337201000191271 ], [ 442079.208351999986917, 5411506.739536000415683 ], [ 442049.509968, 5411344.846438 ], [ 442037.374186999979429, 5411271.264775999821723 ], [ 442064.230812, 5411228.584575000219047 ], [ 442145.967461000022013, 5411176.063588 ], [ 442185.463172000017948, 5411102.61638499982655 ], [ 442181.9791, 5411055.376799999736249 ], [ 441613.7733, 5411153.849700000137091 ], [ 441580.62699999997858, 5411166.4211 ], [ 441480.0786, 5411265.269999999552965 ], [ 441427.999499999976251, 5411309.474600000306964 ], [ 441378.791099999973085, 5411460.173000000417233 ], [ 441351.286000000021886, 5411509.3575 ], [ 441306.527, 5411583.170599999837577 ], [ 441263.207899999979418, 5411627.282200000248849 ], [ 441198.9497, 5411678.5992 ], [ 441137.305500000016764, 5411728.579300000332296 ] ] ] ] } },
{ "type": "Feature", "properties": { "NO": 6160, "NAME": "Rastatt", "typ": 1 }, "geometry": { "type": "MultiPolygon", "coordinates": [ [ [ [ 439248.223999999987427, 5411600.8608 ], [ 439376.2291, 5411560.061200000345707 ], [ 439794.3319, 5411486.26549999974668 ], [ 440080.217, 5411474.767799999564886 ], [ 440613.753399999986868, 5411553.731700000353158 ], [ 440755.694599999987986, 5411322.3235 ], [ 440966.108, 5411069.923100000247359 ], [ 441281.479, 5410770.040900000371039 ], [ 441444.6617, 5410549.1283 ], [ 441549.6187, 5410444.169599999673665 ], [ 441570.8592, 5410333.7138 ], [ 441556.286100000026636, 5410275.623100000433624 ], [ 441690.3076, 5410333.346 ], [ 441908.627099999983329, 5410419.755300000309944 ], [ 442172.369400000025053, 5410545.123999999836087 ], [ 442287.384299999976065, 5410731.1404 ], [ 442361.7967, 5410949.95990000013262 ], [ 442361.7958000000217, 5410843.535400000400841 ], [ 442361.778400000010151, 5408702.362300000153482 ], [ 442346.016, 5408393.348000000230968 ], [ 442276.615, 5408354.7763 ], [ 442185.9889, 5408962.877999999560416 ], [ 442092.6544, 5408930.940600000321865 ], [ 441929.870899999979883, 5408872.5614 ], [ 441812.384499999985565, 5408896.1206 ], [ 441511.055799999972805, 5408767.865000000223517 ], [ 441502.232000000018161, 5408855.67960000038147 ], [ 441477.863399999972899, 5409114.167399999685585 ], [ 441418.415700000012293, 5409183.931099999696016 ], [ 441372.3209, 5409332.9704 ], [ 441324.292200000025332, 5409189.97580000013113 ], [ 441164.803699999989476, 5409213.6623 ], [ 441052.961000000010245, 5409254.338100000284612 ], [ 440904.784600000013597, 5409359.2577 ], [ 440785.828700000012759, 5409549.782800000160933 ], [ 440551.117199999978766, 5409824.901600000448525 ], [ 440391.781399999978021, 5409985.588600000366569 ], [ 440247.246099999989383, 5410059.584499999880791 ], [ 440175.408, 5410096.818099999800324 ], [ 440034.237299999978859, 5410179.391200000420213 ], [ 439941.728599999973085, 5410396.224899999797344 ], [ 439805.617299999983516, 5410604.620400000363588 ], [ 439634.6668, 5410788.755199999548495 ], [ 439394.938000000023749, 5411008.121299999766052 ], [ 439298.7041999999783, 5411245.63219999987632 ], [ 439212.143800000019837, 5411463.325500000268221 ], [ 439248.223999999987427, 5411600.8608 ] ] ] ] } },
{ "type": "Feature", "properties": { "NO": 6170, "NAME": "Rastatt", "typ": 1 }, "geometry": { "type": "MultiPolygon", "coordinates": [ [ [ [ 440509.305700000026263, 5412824.722299999557436 ], [ 440663.4927, 5412691.774400000460446 ], [ 440894.649099999980535, 5412593.81180000025779 ], [ 441171.787100000015926, 5412503.3459 ], [ 441113.058599999989383, 5412246.949300000444055 ], [ 441091.066400000010617, 5412114.5027 ], [ 441142.544600000022911, 5411982.555200000293553 ], [ 441350.414500000013504, 5411855.108900000341237 ], [ 441137.305500000016764, 5411728.579300000332296 ], [ 440990.918200000014622, 5411632.581000000238419 ], [ 440814.5833, 5411568.030500000342727 ], [ 440613.753399999986868, 5411553.731700000353158 ], [ 440080.217, 5411474.767799999564886 ], [ 439794.3319, 5411486.26549999974668 ], [ 439936.89000000001397, 5411639.539800000376999 ], [ 440126.290099999983795, 5412025.4051 ], [ 440509.305700000026263, 5412824.722299999557436 ] ] ] ] } },
{ "type": "Feature", "properties": { "NO": 6181, "NAME": "Rastatt", "typ": 1 }, "geometry": { "type": "MultiPolygon", "coordinates": [ [ [ [ 440137.710100000025705, 5413462.968999999575317 ], [ 440271.444100000022445, 5413617.378100000321865 ], [ 440296.2891, 5413702.346599999815226 ], [ 440636.8369, 5413572.5641 ], [ 440923.2009, 5413491.106200000271201 ], [ 441234.6628, 5413194.593999999575317 ], [ 441287.2463, 5413182.572300000116229 ], [ 441171.787100000015926, 5412503.3459 ], [ 440894.649099999980535, 5412593.81180000025779 ], [ 440663.4927, 5412691.774400000460446 ], [ 440509.305700000026263, 5412824.722299999557436 ], [ 440467.073099999979604, 5412874.2028 ], [ 440411.096499999985099, 5412986.158300000242889 ], [ 440369.114799999981187, 5413161.588200000114739 ], [ 440305.891300000017509, 5413301.53249999973923 ], [ 440137.710100000025705, 5413462.968999999575317 ] ] ] ] } },
{ "type": "Feature", "properties": { "NO": 6182, "NAME": "Rastatt", "typ": 1 }, "geometry": { "type": "MultiPolygon", "coordinates": [ [ [ [ 440812.2267, 5415444.7528 ], [ 440873.679500000027474, 5415285.2314 ], [ 440957.8934, 5415011.8405 ], [ 441168.053000000014435, 5414261.639999999664724 ], [ 441273.257900000025984, 5413911.279799999669194 ], [ 441308.2426, 5413757.341300000436604 ], [ 441287.2463, 5413182.572300000116229 ], [ 441234.6628, 5413194.593999999575317 ], [ 440923.2009, 5413491.106200000271201 ], [ 440636.8369, 5413572.5641 ], [ 440296.2891, 5413702.346599999815226 ], [ 440271.444100000022445, 5413617.378100000321865 ], [ 440137.710100000025705, 5413462.968999999575317 ], [ 439983.522999999986496, 5413581.922500000335276 ], [ 439878.3161, 5413686.881299999542534 ], [ 439829.336399999971036, 5413764.350599999539554 ], [ 439844.416199999977835, 5413899.43099999986589 ], [ 439845.797000000020489, 5414027.4364 ], [ 439755.599800000025425, 5414363.2187 ], [ 439668.965900000010151, 5414570.939000000245869 ], [ 439690.2585, 5414713.48340000025928 ], [ 440235.7242, 5415391.892099999822676 ], [ 440233.1678, 5415262.298700000159442 ], [ 440527.7695, 5415185.41579999960959 ], [ 440675.513199999986682, 5415390.487499999813735 ], [ 440812.2267, 5415444.7528 ] ] ] ] } },
{ "type": "Feature", "properties": { "NO": 6190, "NAME": "Rastatt-DaimlerCrysler", "typ": 2 }, "geometry": { "type": "MultiPolygon", "coordinates": [ [ [ [ 439878.3161, 5413686.881299999542534 ], [ 439983.522999999986496, 5413581.922500000335276 ], [ 440137.710100000025705, 5413462.968999999575317 ], [ 440305.891300000017509, 5413301.53249999973923 ], [ 440369.114799999981187, 5413161.588200000114739 ], [ 440411.096499999985099, 5412986.158300000242889 ], [ 440467.073099999979604, 5412874.2028 ], [ 440509.305700000026263, 5412824.722299999557436 ], [ 440126.290099999983795, 5412025.4051 ], [ 439936.89000000001397, 5411639.539800000376999 ], [ 439794.3319, 5411486.26549999974668 ], [ 439376.2291, 5411560.061200000345707 ], [ 439248.223999999987427, 5411600.8608 ], [ 439079.3701, 5411633.212299999780953 ], [ 439044.135100000014063, 5411731.673100000247359 ], [ 438988.158400000014808, 5411836.631400000303984 ], [ 439170.3383, 5412214.978000000119209 ], [ 439335.709900000016205, 5412575.729799999855459 ], [ 439878.3161, 5413686.881299999542534 ] ] ] ] } },
{ "type": "Feature", "properties": { "NO": 6210, "NAME": "Rastatt-Niederbuehl,", "typ": 2 }, "geometry": { "type": "MultiPolygon", "coordinates": [ [ [ [ 442361.7967, 5410949.95990000013262 ], [ 442533.9766, 5410829.0071 ], [ 442747.6031, 5410586.460900000296533 ], [ 442880.4325, 5410461.082499999552965 ], [ 442888.831, 5410453.1551 ], [ 443158.875, 5410209.92960000038147 ], [ 443182.011699999973644, 5410189.090699999593198 ], [ 443188.3666, 5410186.261900000274181 ], [ 443375.882600000011735, 5410102.791799999773502 ], [ 443792.167399999976624, 5410012.200500000268221 ], [ 443830.580599999986589, 5409677.498700000345707 ], [ 444074.472599999979138, 5409597.471699999645352 ], [ 444672.054799999983516, 5409197.4803 ], [ 444695.6348, 5409076.914800000376999 ], [ 444576.158, 5408903.4984 ], [ 444527.472499999974389, 5408765.9112 ], [ 444702.9536, 5408662.378999999724329 ], [ 444780.510400000028312, 5408628.722 ], [ 444611.612499999988358, 5408438.335400000214577 ], [ 444921.702899999974761, 5408105.693900000303984 ], [ 444308.029199999989942, 5407560.977300000376999 ], [ 444033.018900000024587, 5407165.348500000312924 ], [ 443957.509299999976065, 5407056.720599999651313 ], [ 443828.992199999978766, 5407130.0499 ], [ 443714.865999999979977, 5407232.676699999719858 ], [ 443552.986800000013318, 5407441.068599999882281 ], [ 443511.386999999987893, 5407405.8103 ], [ 443344.1678, 5407555.968999999575317 ], [ 443210.717699999979232, 5407674.194199999794364 ], [ 443116.1665, 5407797.22690000012517 ], [ 443061.617299999983516, 5407920.090300000272691 ], [ 443029.846399999980349, 5408005.427899999544024 ], [ 443015.1715, 5408086.120500000193715 ], [ 442991.9987, 5408142.637799999676645 ], [ 442925.116099999984726, 5408185.247600000351667 ], [ 442864.5969, 5408402.9846 ], [ 442781.296299999987241, 5408321.257399999536574 ], [ 442717.571500000020023, 5408259.935999999754131 ], [ 442530.249499999976251, 5408396.053600000217557 ], [ 442431.2596, 5408467.9846 ], [ 442346.016, 5408393.348000000230968 ], [ 442361.778400000010151, 5408702.362300000153482 ], [ 442361.7958000000217, 5410843.535400000400841 ], [ 442361.7967, 5410949.95990000013262 ] ] ] ] } },
{ "type": "Feature", "properties": { "NO": 6220, "NAME": "RA-Ottersdorf", "typ": 2 }, "geometry": { "type": "MultiPolygon", "coordinates": [ [ [ [ 436391.771, 5413583.574400000274181 ], [ 436653.524800000013784, 5413169.747700000181794 ], [ 436826.576699999975972, 5413186.252500000409782 ], [ 437092.429400000022724, 5413220.182500000111759 ], [ 437359.3846, 5413352.60259999986738 ], [ 437687.640300000028219, 5413447.41399999987334 ], [ 437752.251700000022538, 5413705.215900000184774 ], [ 437972.2661, 5413505.795699999667704 ], [ 438078.0881, 5413584.6393 ], [ 438190.284099999989849, 5413681.878700000233948 ], [ 438425.377900000021327, 5413728.519399999640882 ], [ 438615.771599999978207, 5413640.2483 ], [ 438941.2253, 5413482.793399999849498 ], [ 439100.906200000026729, 5413407.1826 ], [ 439224.091299999970943, 5413381.217199999839067 ], [ 439478.37400000001071, 5413489.249699999578297 ], [ 439739.550600000016857, 5413664.924200000241399 ], [ 439878.3161, 5413686.881299999542534 ], [ 439335.709900000016205, 5412575.729799999855459 ], [ 439170.3383, 5412214.978000000119209 ], [ 438988.158400000014808, 5411836.631400000303984 ], [ 439044.135100000014063, 5411731.673100000247359 ], [ 439079.3701, 5411633.212299999780953 ], [ 439248.223999999987427, 5411600.8608 ], [ 439212.143800000019837, 5411463.325500000268221 ], [ 439298.7041999999783, 5411245.63219999987632 ], [ 439394.938000000023749, 5411008.121299999766052 ], [ 439634.6668, 5410788.755199999548495 ], [ 439805.617299999983516, 5410604.620400000363588 ], [ 439941.728599999973085, 5410396.224899999797344 ], [ 440034.237299999978859, 5410179.391200000420213 ], [ 439942.226499999989755, 5410253.244 ], [ 439817.70529999997234, 5410374.65500000026077 ], [ 439782.2512, 5410323.504800000227988 ], [ 439734.986299999989569, 5410264.9375 ], [ 439111.201, 5410254.974000000394881 ], [ 439010.8874, 5410173.889999999664724 ], [ 438945.124499999976251, 5410162.523199999704957 ], [ 438879.636300000012852, 5410234.161100000143051 ], [ 438866.884399999980815, 5410510.8931 ], [ 438803.815300000016578, 5410658.580799999646842 ], [ 438688.9536, 5410748.192499999888241 ], [ 438579.419799999974202, 5410773.9156 ], [ 438437.293, 5410731.961500000208616 ], [ 438336.379000000015367, 5410727.863800000399351 ], [ 438254.915900000021793, 5410750.17 ], [ 438254.29470000002766, 5410828.156499999575317 ], [ 438078.3346, 5410922.497999999672174 ], [ 437969.2596, 5410974.230000000447035 ], [ 437866.9717, 5410988.10329999960959 ], [ 437532.237199999974109, 5410831.144399999640882 ], [ 437543.481399999989662, 5410967.49210000038147 ], [ 437595.630400000023656, 5411359.530299999751151 ], [ 437262.990999999979977, 5411654.883399999700487 ], [ 437125.434, 5411723.423999999649823 ], [ 437038.8075, 5411751.985600000247359 ], [ 436921.147500000020955, 5411832.1277 ], [ 436708.340000000025611, 5411885.76549999974668 ], [ 436697.3345, 5411960.761400000192225 ], [ 436654.404099999985192, 5412008.5351 ], [ 436690.772400000016205, 5412079.051400000229478 ], [ 436446.932900000014342, 5412355.9435 ], [ 436161.426900000020396, 5412443.654900000430644 ], [ 436063.910800000012387, 5412555.097 ], [ 436039.68550000002142, 5412854.818599999882281 ], [ 436156.426199999987148, 5413042.595599999651313 ], [ 436324.8774, 5413261.295300000347197 ], [ 436391.771, 5413583.574400000274181 ] ] ] ] } },
{ "type": "Feature", "properties": { "NO": 6230, "NAME": "RA-Plittersdorf", "typ": 2 }, "geometry": { "type": "MultiPolygon", "coordinates": [ [ [ [ 438744.6164, 5418897.4868 ], [ 438855.902599999972153, 5418835.796 ], [ 438809.434400000027381, 5418628.752299999818206 ], [ 438792.3259, 5418535.259600000455976 ], [ 438783.724600000015926, 5418439.827100000344217 ], [ 438790.505699999979697, 5418317.1963 ], [ 438800.859, 5418226.391099999658763 ], [ 438815.400299999979325, 5418137.789599999785423 ], [ 438853.743100000021514, 5418024.2818 ], [ 438869.5649, 5417975.9254 ], [ 438907.863699999987148, 5417864.5334 ], [ 438713.9426, 5417621.312699999660254 ], [ 438935.473500000021886, 5417543.796799999661744 ], [ 439259.0415, 5417423.034900000318885 ], [ 439655.8566, 5417154.3525 ], [ 439748.43949999997858, 5417078.27309999987483 ], [ 439880.67090000002645, 5416971.0165 ], [ 440050.966699999989942, 5416812.548899999819696 ], [ 440112.541000000026543, 5416736.8257 ], [ 440211.034900000027847, 5416616.867999999783933 ], [ 440353.98499999998603, 5416426.832000000402331 ], [ 440429.110900000028778, 5416276.388600000180304 ], [ 440455.201, 5416223.929100000299513 ], [ 440534.619, 5416107.575799999758601 ], [ 440259.822900000028312, 5415904.864699999801815 ], [ 440425.673699999984819, 5415623.303299999795854 ], [ 440245.201899999985471, 5415549.55379999987781 ], [ 440235.7242, 5415391.892099999822676 ], [ 439690.2585, 5414713.48340000025928 ], [ 439668.965900000010151, 5414570.939000000245869 ], [ 439755.599800000025425, 5414363.2187 ], [ 439845.797000000020489, 5414027.4364 ], [ 439844.416199999977835, 5413899.43099999986589 ], [ 439829.336399999971036, 5413764.350599999539554 ], [ 439878.3161, 5413686.881299999542534 ], [ 439739.550600000016857, 5413664.924200000241399 ], [ 439478.37400000001071, 5413489.249699999578297 ], [ 439224.091299999970943, 5413381.217199999839067 ], [ 439100.906200000026729, 5413407.1826 ], [ 438941.2253, 5413482.793399999849498 ], [ 438615.771599999978207, 5413640.2483 ], [ 438425.377900000021327, 5413728.519399999640882 ], [ 438190.284099999989849, 5413681.878700000233948 ], [ 438078.0881, 5413584.6393 ], [ 437972.2661, 5413505.795699999667704 ], [ 437752.251700000022538, 5413705.215900000184774 ], [ 437687.640300000028219, 5413447.41399999987334 ], [ 437359.3846, 5413352.60259999986738 ], [ 437092.429400000022724, 5413220.182500000111759 ], [ 436826.576699999975972, 5413186.252500000409782 ], [ 436653.524800000013784, 5413169.747700000181794 ], [ 436391.771, 5413583.574400000274181 ], [ 436074.2266, 5413799.930200000293553 ], [ 435919.906100000021979, 5413780.87569999974221 ], [ 436034.922100000025239, 5414050.918999999761581 ], [ 436241.037399999971967, 5414538.257799999788404 ], [ 436604.020599999988917, 5415315.322100000455976 ], [ 437026.823099999979604, 5416141.694899999536574 ], [ 437087.190799999982119, 5416255.0313 ], [ 437454.809499999973923, 5416945.07120000012219 ], [ 437976.633099999977276, 5417782.88399999961257 ], [ 438142.4154, 5418049.0554 ], [ 438744.6164, 5418897.4868 ] ] ] ] } },
{ "type": "Feature", "properties": { "NO": 6240, "NAME": "RA-Rauental", "typ": 2 }, "geometry": { "type": "MultiPolygon", "coordinates": [ [ [ [ 445016.858799999987241, 5412821.576899999752641 ], [ 445206.575499999977183, 5412449.514600000344217 ], [ 445842.265599999984261, 5412126.702499999664724 ], [ 446141.5578, 5411774.913499999791384 ], [ 445970.9769, 5411658.377399999648333 ], [ 445793.1016, 5411409.7127 ], [ 445780.853899999987334, 5411234.835900000296533 ], [ 445664.247800000011921, 5411065.313799999654293 ], [ 445612.841599999985192, 5410941.960199999623001 ], [ 445571.705100000021048, 5410611.112999999895692 ], [ 445284.8958, 5410361.168200000189245 ], [ 445148.530299999983981, 5410716.332399999722838 ], [ 444828.296199999982491, 5410679.6892 ], [ 444790.3089, 5410871.897699999623001 ], [ 444097.173799999989569, 5411023.512900000438094 ], [ 443938.879200000024866, 5411089.09499999973923 ], [ 444565.783400000014808, 5412206.698200000450015 ], [ 444895.1187, 5412800.705400000326335 ], [ 445016.858799999987241, 5412821.576899999752641 ] ] ] ] } },
{ "type": "Feature", "properties": { "NO": 6250, "NAME": "RA-Wintersdorf", "typ": 2 }, "geometry": { "type": "MultiPolygon", "coordinates": [ [ [ [ 435919.906100000021979, 5413780.87569999974221 ], [ 436074.2266, 5413799.930200000293553 ], [ 436391.771, 5413583.574400000274181 ], [ 436324.8774, 5413261.295300000347197 ], [ 436156.426199999987148, 5413042.595599999651313 ], [ 436039.68550000002142, 5412854.818599999882281 ], [ 436063.910800000012387, 5412555.097 ], [ 436161.426900000020396, 5412443.654900000430644 ], [ 436446.932900000014342, 5412355.9435 ], [ 436690.772400000016205, 5412079.051400000229478 ], [ 436654.404099999985192, 5412008.5351 ], [ 436697.3345, 5411960.761400000192225 ], [ 436708.340000000025611, 5411885.76549999974668 ], [ 436921.147500000020955, 5411832.1277 ], [ 437038.8075, 5411751.985600000247359 ], [ 437125.434, 5411723.423999999649823 ], [ 437262.990999999979977, 5411654.883399999700487 ], [ 437595.630400000023656, 5411359.530299999751151 ], [ 437543.481399999989662, 5410967.49210000038147 ], [ 437532.237199999974109, 5410831.144399999640882 ], [ 437514.2977, 5410587.772900000214577 ], [ 437780.046199999982491, 5410359.300499999895692 ], [ 437740.637999999977183, 5410138.483300000429153 ], [ 437866.6703, 5409752.108300000429153 ], [ 437393.164899999974295, 5409536.264999999664724 ], [ 437560.6877, 5409366.751199999824166 ], [ 437506.01500000001397, 5409110.618300000205636 ], [ 437014.81449999997858, 5408976.404699999839067 ], [ 436575.497800000011921, 5409184.263399999588728 ], [ 436503.603, 5409515.763399999588728 ], [ 435867.799799999978859, 5409410.537700000219047 ], [ 435945.1702, 5409729.143899999558926 ], [ 435696.547299999976531, 5410335.966400000266731 ], [ 435912.777300000016112, 5410757.462799999862909 ], [ 436217.20409999997355, 5410877.282100000418723 ], [ 436199.933100000023842, 5410944.3915 ], [ 436174.04680000001099, 5411032.896999999880791 ], [ 436132.922199999971781, 5411135.041299999691546 ], [ 435773.979, 5411133.968299999833107 ], [ 435674.060300000011921, 5411167.608300000429153 ], [ 435126.3883, 5411449.1014 ], [ 435568.9423, 5412816.314000000245869 ], [ 435919.906100000021979, 5413780.87569999974221 ] ] ] ] } },
{ "type": "Feature", "properties": { "NO": 6261, "NAME": "Muggensturm", "typ": 3 }, "geometry": { "type": "MultiPolygon", "coordinates": [ [ [ [ 443974.0822, 5413292.941800000146031 ], [ 444083.63890000001993, 5413460.169599999673665 ], [ 444332.363499999977648, 5413520.37540000025183 ], [ 444621.17180000001099, 5413529.8136 ], [ 444743.478599999973085, 5413450.1842 ], [ 444752.3175, 5413306.898699999786913 ], [ 444650.981000000028871, 5413104.98589999973774 ], [ 444740.2964, 5412940.14740000013262 ], [ 444756.801800000015646, 5412776.182400000281632 ], [ 444549.966399999975692, 5412671.891900000162423 ], [ 444458.8395, 5412634.801699999719858 ], [ 444341.809699999983422, 5412698.540199999697506 ], [ 444247.6876, 5412699.480000000447035 ], [ 444265.3812, 5412675.838700000196695 ], [ 444253.7966, 5412637.964100000448525 ], [ 444271.8431, 5412597.672899999655783 ], [ 444167.846200000029057, 5412447.7506 ], [ 444094.3935, 5412498.769100000150502 ], [ 443943.050999999977648, 5412381.84250000026077 ], [ 443868.591399999975692, 5412444.0488 ], [ 443876.337500000023283, 5412545.654 ], [ 443907.6028, 5412645.9035 ], [ 443946.081400000024587, 5413020.412200000137091 ], [ 443974.0822, 5413292.941800000146031 ] ] ], [ [ [ 446088.8029, 5413748.596800000406802 ], [ 447194.310300000011921, 5414166.790400000289083 ], [ 447252.0382, 5413977.739299999549985 ], [ 447325.784700000018347, 5414001.478400000371039 ], [ 447426.8188, 5413763.140800000168383 ], [ 447465.977499999979045, 5413645.82149999961257 ], [ 447544.6998, 5413639.84389999974519 ], [ 447616.4496, 5413450.64740000013262 ], [ 447331.510599999979604, 5413310.189299999736249 ], [ 447476.0367, 5413226.780299999751151 ], [ 447519.5884, 5413203.676599999889731 ], [ 447574.738699999987148, 5413110.636099999770522 ], [ 447719.5038, 5412825.57880000025034 ], [ 447837.82819999998901, 5412679.55449999962002 ], [ 447965.145000000018626, 5412580.331600000150502 ], [ 448327.9595, 5412521.5483 ], [ 448470.103699999977835, 5412174.9671 ], [ 448596.240899999975227, 5412222.793999999761581 ], [ 448615.026000000012573, 5412150.1612 ], [ 448618.6164, 5412136.278900000266731 ], [ 448697.339800000016112, 5411831.894899999722838 ], [ 448421.394900000013877, 5411588.1804 ], [ 448257.659700000018347, 5411044.79700000025332 ], [ 447541.309300000022631, 5410772.95380000025034 ], [ 447378.828900000022259, 5410651.587799999862909 ], [ 447038.202700000023469, 5410971.5192 ], [ 446730.234500000020489, 5410729.138299999758601 ], [ 446371.976299999980256, 5411329.467199999839067 ], [ 446141.5578, 5411774.913499999791384 ], [ 445842.265599999984261, 5412126.702499999664724 ], [ 445206.575499999977183, 5412449.514600000344217 ], [ 445016.858799999987241, 5412821.576899999752641 ], [ 445120.1839, 5412998.719399999827147 ], [ 445209.43550000002142, 5412986.57079999987036 ], [ 445267.8664, 5412965.7829 ], [ 445331.005, 5412959.0926 ], [ 445386.731900000013411, 5412972.2483 ], [ 445462.9106, 5413011.828200000338256 ], [ 445488.733499999972992, 5413020.363800000399351 ], [ 445521.511899999983143, 5413031.043499999679625 ], [ 445577.508199999982025, 5413031.204900000244379 ], [ 445607.7502, 5413308.8311 ], [ 445963.428200000023935, 5413517.206799999810755 ], [ 445912.6667, 5413602.154 ], [ 446088.8029, 5413748.596800000406802 ] ] ] ] } },
{ "type": "Feature", "properties": { "NO": 6262, "NAME": "Muggensturm", "typ": 3 }, "geometry": { "type": "MultiPolygon", "coordinates": [ [ [ [ 447825.266400000022259, 5415068.80559999961406 ], [ 447972.8308, 5415089.863699999637902 ], [ 448055.913999999989755, 5414844.58420000039041 ], [ 448168.596599999989849, 5414859.919300000183284 ], [ 448255.781200000026729, 5414609.7253 ], [ 448285.202, 5414599.325000000186265 ], [ 448300.732599999988452, 5414593.853799999691546 ], [ 448509.6409, 5414519.985299999825656 ], [ 448705.2342, 5414250.037899999879301 ], [ 448774.685, 5414083.477 ], [ 448891.895499999984168, 5413638.907100000418723 ], [ 448985.622800000011921, 5413072.853000000119209 ], [ 449133.240500000014435, 5412849.913499999791384 ], [ 449286.342899999988731, 5412700.087100000120699 ], [ 449176.93939999997383, 5412574.821899999864399 ], [ 449028.5588, 5412496.748599999584258 ], [ 449068.0538, 5412424.567699999548495 ], [ 448596.240899999975227, 5412222.793999999761581 ], [ 448470.103699999977835, 5412174.9671 ], [ 448327.9595, 5412521.5483 ], [ 447965.145000000018626, 5412580.331600000150502 ], [ 447837.82819999998901, 5412679.55449999962002 ], [ 447719.5038, 5412825.57880000025034 ], [ 447574.738699999987148, 5413110.636099999770522 ], [ 447519.5884, 5413203.676599999889731 ], [ 447476.0367, 5413226.780299999751151 ], [ 447331.510599999979604, 5413310.189299999736249 ], [ 447616.4496, 5413450.64740000013262 ], [ 447544.6998, 5413639.84389999974519 ], [ 447465.977499999979045, 5413645.82149999961257 ], [ 447426.8188, 5413763.140800000168383 ], [ 447325.784700000018347, 5414001.478400000371039 ], [ 447252.0382, 5413977.739299999549985 ], [ 447194.310300000011921, 5414166.790400000289083 ], [ 446088.8029, 5413748.596800000406802 ], [ 446362.9045, 5413976.489799999631941 ], [ 446323.5737, 5414040.6744 ], [ 446477.793899999989662, 5414171.724399999715388 ], [ 446578.089900000020862, 5414256.95160000026226 ], [ 446527.332899999979418, 5414407.7895 ], [ 446995.952999999979511, 5414655.7209 ], [ 447526.837600000028033, 5414920.157599999569356 ], [ 447825.266400000022259, 5415068.80559999961406 ] ] ] ] } },
{ "type": "Feature", "properties": { "NO": 6271, "NAME": "Ötigheim", "typ": 3 }, "geometry": { "type": "MultiPolygon", "coordinates": [ [ [ [ 442129.565500000026077, 5415129.377399999648333 ], [ 442079.033300000010058, 5415944.637400000356138 ], [ 441891.1322, 5416228.742499999701977 ], [ 442530.4741, 5417032.030600000172853 ], [ 442844.5492, 5417221.552899999544024 ], [ 443220.853, 5417207.360600000247359 ], [ 444152.705200000025798, 5416781.6831 ], [ 444794.158999999985099, 5416220.529500000178814 ], [ 444522.091699999989942, 5415712.045599999837577 ], [ 444260.869499999971595, 5415224.721400000154972 ], [ 444118.759199999971315, 5414901.275299999862909 ], [ 443670.8394, 5413769.842400000430644 ], [ 443491.5859, 5413846.93059999961406 ], [ 443382.637700000021141, 5414422.672899999655783 ], [ 443290.559300000022631, 5414613.138799999840558 ], [ 443346.3102, 5414666.828200000338256 ], [ 443377.059, 5414715.091799999587238 ], [ 443407.478599999973085, 5414779.223899999633431 ], [ 443421.8981, 5414849.373800000175834 ], [ 443429.97019999998156, 5414919.392199999652803 ], [ 443286.397300000011455, 5415060.681900000199676 ], [ 443004.315599999972619, 5415160.829300000332296 ], [ 442271.734400000015739, 5414706.619 ], [ 442146.935699999972712, 5414745.028900000266731 ], [ 442129.565500000026077, 5415129.377399999648333 ] ] ] ] } },
{ "type": "Feature", "properties": { "NO": 6272, "NAME": "Ötigheim", "typ": 3 }, "geometry": { "type": "MultiPolygon", "coordinates": [ [ [ [ 444794.158999999985099, 5416220.529500000178814 ], [ 445422.299, 5415837.998700000345707 ], [ 445818.6457, 5415464.867200000211596 ], [ 446241.294600000022911, 5415066.9726 ], [ 446527.332899999979418, 5414407.7895 ], [ 446578.089900000020862, 5414256.95160000026226 ], [ 446477.793899999989662, 5414171.724399999715388 ], [ 446323.5737, 5414040.6744 ], [ 446362.9045, 5413976.489799999631941 ], [ 446088.8029, 5413748.596800000406802 ], [ 445912.6667, 5413602.154 ], [ 445963.428200000023935, 5413517.206799999810755 ], [ 445607.7502, 5413308.8311 ], [ 445577.508199999982025, 5413031.204900000244379 ], [ 445521.511899999983143, 5413031.043499999679625 ], [ 445488.733499999972992, 5413020.363800000399351 ], [ 445462.9106, 5413011.828200000338256 ], [ 445386.731900000013411, 5412972.2483 ], [ 445331.005, 5412959.0926 ], [ 445267.8664, 5412965.7829 ], [ 445209.43550000002142, 5412986.57079999987036 ], [ 445120.1839, 5412998.719399999827147 ], [ 445016.858799999987241, 5412821.576899999752641 ], [ 444895.1187, 5412800.705400000326335 ], [ 444756.801800000015646, 5412776.182400000281632 ], [ 444740.2964, 5412940.14740000013262 ], [ 444650.981000000028871, 5413104.98589999973774 ], [ 444752.3175, 5413306.898699999786913 ], [ 444743.478599999973085, 5413450.1842 ], [ 444621.17180000001099, 5413529.8136 ], [ 444332.363499999977648, 5413520.37540000025183 ], [ 444083.63890000001993, 5413460.169599999673665 ], [ 443974.0822, 5413292.941800000146031 ], [ 443782.18, 5413721.960199999623001 ], [ 443670.8394, 5413769.842400000430644 ], [ 444118.759199999971315, 5414901.275299999862909 ], [ 444260.869499999971595, 5415224.721400000154972 ], [ 444522.091699999989942, 5415712.045599999837577 ], [ 444794.158999999985099, 5416220.529500000178814 ] ] ] ] } },
{ "type": "Feature", "properties": { "NO": 6280, "NAME": "Steinmauern", "typ": 3 }, "geometry": { "type": "MultiPolygon", "coordinates": [ [ [ [ 441538.34250000002794, 5419590.524600000120699 ], [ 441974.7437, 5419186.565499999560416 ], [ 442086.971000000019558, 5418934.884999999776483 ], [ 442275.183499999984633, 5418876.78870000038296 ], [ 442446.35999999998603, 5419061.347500000149012 ], [ 442638.285199999983888, 5418824.32149999961257 ], [ 442971.729999999981374, 5418996.246000000275671 ], [ 443065.830000000016298, 5418654.186499999836087 ], [ 443500.739899999985937, 5418418.201399999670684 ], [ 443581.093600000021979, 5418304.864900000393391 ], [ 443445.060699999972712, 5418017.034099999815226 ], [ 443607.256799999973737, 5417911.395899999886751 ], [ 443563.477699999988545, 5417852.485999999567866 ], [ 443502.120500000019092, 5417773.21100000012666 ], [ 443394.1558, 5417674.968399999663234 ], [ 443314.034600000013597, 5417584.3037 ], [ 443226.916399999987334, 5417493.493800000287592 ], [ 443168.160299999988638, 5417385.271800000220537 ], [ 443166.551099999982398, 5417318.236700000241399 ], [ 443188.87, 5417254.698200000450015 ], [ 443220.853, 5417207.360600000247359 ], [ 442844.5492, 5417221.552899999544024 ], [ 442530.4741, 5417032.030600000172853 ], [ 441891.1322, 5416228.742499999701977 ], [ 442079.033300000010058, 5415944.637400000356138 ], [ 442129.565500000026077, 5415129.377399999648333 ], [ 440977.9584, 5415513.770200000144541 ], [ 440812.2267, 5415444.7528 ], [ 440675.513199999986682, 5415390.487499999813735 ], [ 440527.7695, 5415185.41579999960959 ], [ 440233.1678, 5415262.298700000159442 ], [ 440235.7242, 5415391.892099999822676 ], [ 440245.201899999985471, 5415549.55379999987781 ], [ 440425.673699999984819, 5415623.303299999795854 ], [ 440259.822900000028312, 5415904.864699999801815 ], [ 440534.619, 5416107.575799999758601 ], [ 440455.201, 5416223.929100000299513 ], [ 440429.110900000028778, 5416276.388600000180304 ], [ 440353.98499999998603, 5416426.832000000402331 ], [ 440211.034900000027847, 5416616.867999999783933 ], [ 440112.541000000026543, 5416736.8257 ], [ 440050.966699999989942, 5416812.548899999819696 ], [ 439880.67090000002645, 5416971.0165 ], [ 439748.43949999997858, 5417078.27309999987483 ], [ 439655.8566, 5417154.3525 ], [ 439259.0415, 5417423.034900000318885 ], [ 438935.473500000021886, 5417543.796799999661744 ], [ 438713.9426, 5417621.312699999660254 ], [ 438907.863699999987148, 5417864.5334 ], [ 438869.5649, 5417975.9254 ], [ 438853.743100000021514, 5418024.2818 ], [ 438815.400299999979325, 5418137.789599999785423 ], [ 438800.859, 5418226.391099999658763 ], [ 438790.505699999979697, 5418317.1963 ], [ 438783.724600000015926, 5418439.827100000344217 ], [ 438792.3259, 5418535.259600000455976 ], [ 438809.434400000027381, 5418628.752299999818206 ], [ 438855.902599999972153, 5418835.796 ], [ 438744.6164, 5418897.4868 ], [ 439166.093500000017229, 5419501.267400000244379 ], [ 439348.9634, 5419556.068 ], [ 439486.193900000012945, 5419381.69620000012219 ], [ 439950.904099999985192, 5418741.5345 ], [ 440133.4521, 5418667.322300000116229 ], [ 440319.6828, 5418849.1963 ], [ 440169.747099999978673, 5419231.098299999721348 ], [ 441538.34250000002794, 5419590.524600000120699 ] ] ] ] } },
{ "type": "Feature", "properties": { "NO": 6320, "NAME": "Elchesheim", "typ": 3 }, "geometry": { "type": "MultiPolygon", "coordinates": [ [ [ [ 442190.811899999971502, 5421304.1436 ], [ 442337.083800000022165, 5421484.187800000421703 ], [ 442521.760699999984354, 5421452.0176 ], [ 442578.794600000022911, 5421337.539200000464916 ], [ 442564.6447, 5421209.802400000393391 ], [ 442638.6335, 5421217.4304 ], [ 442952.8626, 5421399.958200000226498 ], [ 442934.434499999973923, 5421661.589300000108778 ], [ 443043.5098, 5421802.859299999661744 ], [ 443189.678399999975227, 5421746.8882 ], [ 443148.219700000016019, 5421335.007299999706447 ], [ 443530.774800000013784, 5421260.938500000163913 ], [ 443579.559400000027381, 5420933.9348 ], [ 444303.9058, 5420725.9474 ], [ 444007.566500000015367, 5420548.794200000353158 ], [ 443910.710499999986496, 5420348.776800000108778 ], [ 443627.0563, 5420186.886800000444055 ], [ 443718.492299999983516, 5419876.770600000396371 ], [ 443944.1005, 5419751.444899999536574 ], [ 444060.8163, 5419427.85329999960959 ], [ 444146.844700000016019, 5419426.6376 ], [ 444134.8761, 5419039.3755 ], [ 443837.3541, 5418871.198800000362098 ], [ 443500.739899999985937, 5418418.201399999670684 ], [ 443065.830000000016298, 5418654.186499999836087 ], [ 442971.729999999981374, 5418996.246000000275671 ], [ 442638.285199999983888, 5418824.32149999961257 ], [ 442446.35999999998603, 5419061.347500000149012 ], [ 442275.183499999984633, 5418876.78870000038296 ], [ 442086.971000000019558, 5418934.884999999776483 ], [ 441974.7437, 5419186.565499999560416 ], [ 441538.34250000002794, 5419590.524600000120699 ], [ 441591.427199999976438, 5419680.46100000012666 ], [ 442105.972799999988638, 5419947.849399999715388 ], [ 442327.135400000028312, 5420122.7774 ], [ 442473.398999999975786, 5420291.603500000201166 ], [ 442524.3443, 5420448.458399999886751 ], [ 442565.068099999974947, 5420570.989 ], [ 442561.862000000022817, 5420738.231200000271201 ], [ 442528.7119, 5420871.3536 ], [ 442442.030299999983981, 5421073.872700000181794 ], [ 442329.935, 5421202.8882 ], [ 442190.811899999971502, 5421304.1436 ] ] ] ] } },
{ "type": "Feature", "properties": { "NO": 6330, "NAME": "Illingen", "typ": 3 }, "geometry": { "type": "MultiPolygon", "coordinates": [ [ [ [ 440498.7377, 5421701.3273 ], [ 440906.28269999998156, 5421615.5033 ], [ 441217.769199999980628, 5421881.982800000347197 ], [ 441664.141300000017509, 5421865.245000000111759 ], [ 441407.0036, 5421533.891099999658763 ], [ 441895.8151, 5421496.03249999973923 ], [ 442190.811899999971502, 5421304.1436 ], [ 442329.935, 5421202.8882 ], [ 442442.030299999983981, 5421073.872700000181794 ], [ 442528.7119, 5420871.3536 ], [ 442561.862000000022817, 5420738.231200000271201 ], [ 442565.068099999974947, 5420570.989 ], [ 442524.3443, 5420448.458399999886751 ], [ 442473.398999999975786, 5420291.603500000201166 ], [ 442327.135400000028312, 5420122.7774 ], [ 442105.972799999988638, 5419947.849399999715388 ], [ 441591.427199999976438, 5419680.46100000012666 ], [ 441538.34250000002794, 5419590.524600000120699 ], [ 440169.747099999978673, 5419231.098299999721348 ], [ 440319.6828, 5418849.1963 ], [ 440133.4521, 5418667.322300000116229 ], [ 439950.904099999985192, 5418741.5345 ], [ 439486.193900000012945, 5419381.69620000012219 ], [ 439348.9634, 5419556.068 ], [ 439166.093500000017229, 5419501.267400000244379 ], [ 439759.912100000015926, 5420332.565000000409782 ], [ 439885.959800000011455, 5420509.0214 ], [ 440311.070300000021234, 5421335.132799999788404 ], [ 440498.7377, 5421701.3273 ] ] ] ] } },
{ "type": "Feature", "properties": { "NO": 6361, "NAME": "Bietigheim", "typ": 3 }, "geometry": { "type": "MultiPolygon", "coordinates": [ [ [ [ 444365.573900000017602, 5419681.183299999684095 ], [ 445281.967, 5418892.1579 ], [ 445697.5023, 5418669.901499999687076 ], [ 445355.9584, 5418049.025100000202656 ], [ 445070.147500000020955, 5417031.5384 ], [ 445184.4719, 5416941.984400000423193 ], [ 444794.158999999985099, 5416220.529500000178814 ], [ 444152.705200000025798, 5416781.6831 ], [ 443220.853, 5417207.360600000247359 ], [ 443188.87, 5417254.698200000450015 ], [ 443166.551099999982398, 5417318.236700000241399 ], [ 443168.160299999988638, 5417385.271800000220537 ], [ 443226.916399999987334, 5417493.493800000287592 ], [ 443314.034600000013597, 5417584.3037 ], [ 443394.1558, 5417674.968399999663234 ], [ 443502.120500000019092, 5417773.21100000012666 ], [ 443563.477699999988545, 5417852.485999999567866 ], [ 443607.256799999973737, 5417911.395899999886751 ], [ 443445.060699999972712, 5418017.034099999815226 ], [ 443581.093600000021979, 5418304.864900000393391 ], [ 443500.739899999985937, 5418418.201399999670684 ], [ 443837.3541, 5418871.198800000362098 ], [ 444134.8761, 5419039.3755 ], [ 444146.844700000016019, 5419426.6376 ], [ 444271.7916, 5419616.393899999558926 ], [ 444365.573900000017602, 5419681.183299999684095 ] ] ] ] } },
{ "type": "Feature", "properties": { "NO": 6362, "NAME": "Bietigheim", "typ": 3 }, "geometry": { "type": "MultiPolygon", "coordinates": [ [ [ [ 445697.5023, 5418669.901499999687076 ], [ 446197.070400000025984, 5418406.114299999549985 ], [ 446211.987299999978859, 5418265.419700000435114 ], [ 446522.2302, 5418205.848899999633431 ], [ 446782.928300000028685, 5417931.245299999602139 ], [ 446867.821300000010524, 5418033.007299999706447 ], [ 446996.3029, 5417961.6683 ], [ 446936.482599999988452, 5417856.426099999807775 ], [ 447477.2256, 5417531.625 ], [ 447403.369499999971595, 5417428.09250000026077 ], [ 447488.0134, 5417348.8449 ], [ 448246.664500000013504, 5417920.94400000013411 ], [ 448370.2475, 5418014.138000000268221 ], [ 448481.5638, 5417902.441499999724329 ], [ 448565.456200000015087, 5417811.177400000393391 ], [ 448621.566999999980908, 5417709.337799999862909 ], [ 448467.778700000024401, 5417554.14879999961704 ], [ 448348.086000000010245, 5417442.667100000195205 ], [ 448482.159099999989849, 5417294.4419 ], [ 448249.372299999988172, 5417042.614799999631941 ], [ 448342.944200000027195, 5416918.5515 ], [ 448104.2696, 5416709.603199999779463 ], [ 448344.860600000014529, 5416198.581299999728799 ], [ 448410.754399999976158, 5416058.94510000012815 ], [ 448425.746900000027381, 5415866.2538 ], [ 448285.3075, 5415694.3426 ], [ 448040.689000000013039, 5415386.271499999798834 ], [ 447825.266400000022259, 5415068.80559999961406 ], [ 447526.837600000028033, 5414920.157599999569356 ], [ 446995.952999999979511, 5414655.7209 ], [ 446527.332899999979418, 5414407.7895 ], [ 446241.294600000022911, 5415066.9726 ], [ 445818.6457, 5415464.867200000211596 ], [ 445422.299, 5415837.998700000345707 ], [ 444794.158999999985099, 5416220.529500000178814 ], [ 445184.4719, 5416941.984400000423193 ], [ 445070.147500000020955, 5417031.5384 ], [ 445355.9584, 5418049.025100000202656 ], [ 445697.5023, 5418669.901499999687076 ] ] ] ] } },
{ "type": "Feature", "properties": { "NO": 6511, "NAME": "Kuppenheim", "typ": 3 }, "geometry": { "type": "MultiPolygon", "coordinates": [ [ [ [ 446973.3333, 5409036.222500000149012 ], [ 446782.537200000020675, 5408886.94620000012219 ], [ 446588.5578, 5408630.064299999736249 ], [ 446483.369599999976344, 5408222.5214 ], [ 446462.559799999988172, 5407731.7708 ], [ 446756.5047, 5407578.777599999681115 ], [ 447114.897699999972247, 5407448.287100000306964 ], [ 447428.355700000014622, 5407266.636199999600649 ], [ 447660.287499999976717, 5406956.354399999603629 ], [ 447885.6629, 5406602.988599999807775 ], [ 448260.8908, 5406362.2538 ], [ 448418.727300000027753, 5406265.304399999789894 ], [ 447857.918699999980163, 5405678.707299999892712 ], [ 448235.153700000024401, 5405280.551099999807775 ], [ 447693.858799999987241, 5404669.362099999561906 ], [ 447654.509499999985565, 5404300.568400000222027 ], [ 447570.9376, 5404424.827600000426173 ], [ 447426.6215, 5404295.842400000430644 ], [ 447351.1447, 5404367.272599999792874 ], [ 447206.9325, 5404233.289599999785423 ], [ 447277.200200000021141, 5404123.753899999894202 ], [ 447198.711399999971036, 5404051.130400000140071 ], [ 447065.784600000013597, 5403903.38260000012815 ], [ 446964.818000000028405, 5403950.2851 ], [ 446842.6959, 5404004.7484 ], [ 446884.348799999977928, 5404310.59360000025481 ], [ 446695.9313, 5404427.678000000305474 ], [ 446598.199499999987893, 5404559.6426 ], [ 446520.12599999998929, 5404708.0142 ], [ 446520.67359999998007, 5404778.02170000039041 ], [ 446613.0355, 5404904.93059999961406 ], [ 446598.561999999976251, 5405120.61809999961406 ], [ 446354.502199999988079, 5405220.549599999561906 ], [ 446040.3972, 5405130.0378 ], [ 445842.464199999987613, 5405030.936300000175834 ], [ 445770.930500000016764, 5404960.455799999646842 ], [ 445595.4803, 5405030.811200000345707 ], [ 445524.357599999988452, 5404892.343000000342727 ], [ 445225.8139, 5404871.14850000012666 ], [ 445222.661000000021886, 5405023.074799999594688 ], [ 445282.99, 5405129.56969999987632 ], [ 445313.802299999981187, 5405302.179399999789894 ], [ 445263.401200000022072, 5405436.064399999566376 ], [ 445231.6873, 5405689.394000000320375 ], [ 445095.0208, 5405873.382500000298023 ], [ 445078.2144, 5406105.022599999792874 ], [ 445058.704900000011548, 5406129.61670000012964 ], [ 445033.907400000025518, 5406168.100200000219047 ], [ 445012.0256, 5406210.644100000150502 ], [ 444993.1629, 5406252.250799999572337 ], [ 444978.215399999986403, 5406297.938400000333786 ], [ 444965.287699999986216, 5406342.668200000189245 ], [ 444961.978, 5406357.598799999803305 ], [ 444960.854, 5406363.5751 ], [ 444957.3369, 5406388.5011 ], [ 444954.674, 5406420.44440000038594 ], [ 444930.627099999983329, 5406470.943099999800324 ], [ 444860.6435, 5406518.488599999807775 ], [ 444756.783500000019558, 5406608.32909999974072 ], [ 444657.668300000019372, 5406662.269799999892712 ], [ 444511.9731, 5406744.2423 ], [ 444395.741199999989476, 5406803.827399999834597 ], [ 444244.318199999979697, 5406872.681599999777973 ], [ 444143.663600000028964, 5406952.588999999687076 ], [ 444047.401300000026822, 5407013.588399999774992 ], [ 443965.588600000017323, 5407052.888500000350177 ], [ 443957.509299999976065, 5407056.720599999651313 ], [ 444033.018900000024587, 5407165.348500000312924 ], [ 444308.029199999989942, 5407560.977300000376999 ], [ 444921.702899999974761, 5408105.693900000303984 ], [ 444611.612499999988358, 5408438.335400000214577 ], [ 444780.510400000028312, 5408628.722 ], [ 445071.48320000001695, 5408946.727800000458956 ], [ 445112.0394, 5408900.843000000342727 ], [ 445094.2596, 5408832.7736 ], [ 445132.29470000002766, 5408785.481499999761581 ], [ 445209.203700000012759, 5408776.195899999700487 ], [ 445316.4302, 5408805.002399999648333 ], [ 445476.547299999976531, 5408883.9441 ], [ 445569.593500000017229, 5408829.7209 ], [ 445769.058200000028592, 5408721.147900000214577 ], [ 445969.690799999982119, 5408732.5329 ], [ 446117.240800000028685, 5408784.424200000241399 ], [ 446258.6175, 5408889.693699999712408 ], [ 446334.4618, 5409030.973299999721348 ], [ 446973.3333, 5409036.222500000149012 ] ] ] ] } },
{ "type": "Feature", "properties": { "NO": 6512, "NAME": "Kuppenheim", "typ": 3 }, "geometry": { "type": "MultiPolygon", "coordinates": [ [ [ [ 443792.167399999976624, 5410012.200500000268221 ], [ 444207.864400000020396, 5409881.830799999646842 ], [ 444445.158999999985099, 5409768.9167 ], [ 444710.391500000027008, 5409619.5329 ], [ 445115.861800000013318, 5409299.424800000153482 ], [ 445417.678100000019185, 5409128.700400000438094 ], [ 445719.494300000020303, 5409113.4572 ], [ 446124.964700000011362, 5409113.4572 ], [ 446334.4618, 5409030.973299999721348 ], [ 446258.6175, 5408889.693699999712408 ], [ 446117.240800000028685, 5408784.424200000241399 ], [ 445969.690799999982119, 5408732.5329 ], [ 445769.058200000028592, 5408721.147900000214577 ], [ 445569.593500000017229, 5408829.7209 ], [ 445476.547299999976531, 5408883.9441 ], [ 445316.4302, 5408805.002399999648333 ], [ 445209.203700000012759, 5408776.195899999700487 ], [ 445132.29470000002766, 5408785.481499999761581 ], [ 445094.2596, 5408832.7736 ], [ 445112.0394, 5408900.843000000342727 ], [ 445071.48320000001695, 5408946.727800000458956 ], [ 444780.510400000028312, 5408628.722 ], [ 444702.9536, 5408662.378999999724329 ], [ 444527.472499999974389, 5408765.9112 ], [ 444576.158, 5408903.4984 ], [ 444695.6348, 5409076.914800000376999 ], [ 444672.054799999983516, 5409197.4803 ], [ 444074.472599999979138, 5409597.471699999645352 ], [ 443830.580599999986589, 5409677.498700000345707 ], [ 443792.167399999976624, 5410012.200500000268221 ] ] ] ] } },
{ "type": "Feature", "properties": { "NO": 6513, "NAME": "Kuppenheim-Oberndorf", "typ": 3 }, "geometry": { "type": "MultiPolygon", "coordinates": [ [ [ [ 446973.3333, 5409036.222500000149012 ], [ 447233.742900000012014, 5408919.6261 ], [ 447553.043200000014622, 5408615.256799999624491 ], [ 447736.104600000020582, 5408419.059100000187755 ], [ 448173.830200000025798, 5407949.151700000278652 ], [ 448278.1236, 5407838.318199999630451 ], [ 448320.5099, 5407337.218000000342727 ], [ 448607.049300000013318, 5406828.1809 ], [ 448597.209800000011455, 5406476.410899999551475 ], [ 448593.839800000016112, 5406355.930100000463426 ], [ 448459.26659999997355, 5406432.136599999852479 ], [ 448418.727300000027753, 5406265.304399999789894 ], [ 448260.8908, 5406362.2538 ], [ 447885.6629, 5406602.988599999807775 ], [ 447660.287499999976717, 5406956.354399999603629 ], [ 447428.355700000014622, 5407266.636199999600649 ], [ 447114.897699999972247, 5407448.287100000306964 ], [ 446756.5047, 5407578.777599999681115 ], [ 446462.559799999988172, 5407731.7708 ], [ 446483.369599999976344, 5408222.5214 ], [ 446588.5578, 5408630.064299999736249 ], [ 446782.537200000020675, 5408886.94620000012219 ], [ 446973.3333, 5409036.222500000149012 ] ] ] ] } },
{ "type": "Feature", "properties": { "NO": 6514, "NAME": "Kuppenheim Daimler", "typ": 3 }, "geometry": { "type": "MultiPolygon", "coordinates": [ [ [ [ 446141.5578, 5411774.913499999791384 ], [ 446371.976299999980256, 5411329.467199999839067 ], [ 446415.5627, 5411147.605200000107288 ], [ 446046.854700000025332, 5410940.962299999780953 ], [ 446131.036100000026636, 5410835.710099999792874 ], [ 446024.936800000024959, 5410599.51410000026226 ], [ 446135.877900000021327, 5410505.816999999806285 ], [ 446055.762800000025891, 5410222.161399999633431 ], [ 446119.040800000017043, 5410160.4753 ], [ 445874.063199999975041, 5409870.400999999605119 ], [ 446124.475199999986216, 5409705.599100000225008 ], [ 446046.444200000027195, 5409658.981700000353158 ], [ 446124.964700000011362, 5409113.4572 ], [ 445719.494300000020303, 5409113.4572 ], [ 445417.678100000019185, 5409128.700400000438094 ], [ 445115.861800000013318, 5409299.424800000153482 ], [ 444710.391500000027008, 5409619.5329 ], [ 444445.158999999985099, 5409768.9167 ], [ 444207.864400000020396, 5409881.830799999646842 ], [ 444322.222599999979138, 5410057.200199999846518 ], [ 443864.5049, 5410477.693099999800324 ], [ 444005.825399999972433, 5410847.619800000451505 ], [ 443864.955399999977089, 5410970.0296 ], [ 443938.879200000024866, 5411089.09499999973923 ], [ 444097.173799999989569, 5411023.512900000438094 ], [ 444790.3089, 5410871.897699999623001 ], [ 444828.296199999982491, 5410679.6892 ], [ 445148.530299999983981, 5410716.332399999722838 ], [ 445284.8958, 5410361.168200000189245 ], [ 445571.705100000021048, 5410611.112999999895692 ], [ 445612.841599999985192, 5410941.960199999623001 ], [ 445664.247800000011921, 5411065.313799999654293 ], [ 445780.853899999987334, 5411234.835900000296533 ], [ 445793.1016, 5411409.7127 ], [ 445970.9769, 5411658.377399999648333 ], [ 446141.5578, 5411774.913499999791384 ] ] ] ] } },
{ "type": "Feature", "properties": { "NO": 6515, "NAME": "Bischweier", "typ": 3 }, "geometry": { "type": "MultiPolygon", "coordinates": [ [ [ [ 446371.976299999980256, 5411329.467199999839067 ], [ 446730.234500000020489, 5410729.138299999758601 ], [ 447038.202700000023469, 5410971.5192 ], [ 447378.828900000022259, 5410651.587799999862909 ], [ 447541.309300000022631, 5410772.95380000025034 ], [ 447870.462500000023283, 5410475.783699999563396 ], [ 448065.855700000014622, 5410504.833200000226498 ], [ 448225.136300000012852, 5410298.1398 ], [ 448392.459199999982957, 5410330.606999999843538 ], [ 448529.78000000002794, 5410025.4611 ], [ 449213.136400000017602, 5410055.621799999848008 ], [ 448568.363399999972899, 5409611.27240000013262 ], [ 448643.2771, 5409518.8279 ], [ 448158.108699999982491, 5408755.796 ], [ 447960.299300000013318, 5408698.697300000116229 ], [ 447835.190400000021327, 5408897.096900000236928 ], [ 447711.907300000020768, 5408621.5504 ], [ 447553.043200000014622, 5408615.256799999624491 ], [ 447233.742900000012014, 5408919.6261 ], [ 446973.3333, 5409036.222500000149012 ], [ 446334.4618, 5409030.973299999721348 ], [ 446124.964700000011362, 5409113.4572 ], [ 446046.444200000027195, 5409658.981700000353158 ], [ 446124.475199999986216, 5409705.599100000225008 ], [ 445874.063199999975041, 5409870.400999999605119 ], [ 446119.040800000017043, 5410160.4753 ], [ 446055.762800000025891, 5410222.161399999633431 ], [ 446135.877900000021327, 5410505.816999999806285 ], [ 446024.936800000024959, 5410599.51410000026226 ], [ 446131.036100000026636, 5410835.710099999792874 ], [ 446046.854700000025332, 5410940.962299999780953 ], [ 446415.5627, 5411147.605200000107288 ], [ 446371.976299999980256, 5411329.467199999839067 ] ] ] ] } },
{ "type": "Feature", "properties": { "NO": 6523, "NAME": "Gaggenau-Bad Rothenfels", "typ": 3 }, "geometry": { "type": "MultiPolygon", "coordinates": [ [ [ [ 452634.53090000001248, 5410371.41469999961555 ], [ 450931.858799999987241, 5407706.0449 ], [ 450928.521, 5407700.819899999536574 ], [ 450923.584900000016205, 5407692.595099999569356 ], [ 450400.5354, 5406821.0521 ], [ 450203.4339, 5406689.99959999974817 ], [ 449908.239400000020396, 5406511.31180000025779 ], [ 449800.140300000028219, 5406429.263000000268221 ], [ 449591.916399999987334, 5406398.775700000114739 ], [ 449484.4543999999878, 5406445.598199999891222 ], [ 449162.2794, 5406429.719399999827147 ], [ 449082.03269999998156, 5406463.890100000426173 ], [ 448957.0381, 5406604.127999999560416 ], [ 448841.18939999997383, 5406945.5767 ], [ 448723.610700000019278, 5407224.713399999774992 ], [ 448820.756899999978486, 5407319.8169 ], [ 448821.6359, 5407415.801099999807775 ], [ 448907.788899999985006, 5407479.006699999794364 ], [ 448898.360900000028778, 5407617.743900000117719 ], [ 448974.3013, 5407734.3673 ], [ 449093.31060000002617, 5407882.591300000436604 ], [ 449142.0209, 5407946.136199999600649 ], [ 449191.457400000013877, 5408089.657999999821186 ], [ 449272.587400000018533, 5408190.231800000183284 ], [ 449252.118599999987055, 5408291.727 ], [ 449307.0415, 5408451.186599999666214 ], [ 449293.178200000023935, 5408691.2412 ], [ 449405.798400000028778, 5408727.541299999691546 ], [ 449688.6471, 5408666.3388 ], [ 450016.518700000015087, 5408855.331399999558926 ], [ 450147.26390000001993, 5409126.060999999754131 ], [ 450026.499599999981001, 5409355.842000000178814 ], [ 450692.578099999984261, 5409231.6568 ], [ 451460.348799999977928, 5409431.8926 ], [ 452180.927299999981187, 5409898.700799999758601 ], [ 452634.53090000001248, 5410371.41469999961555 ] ] ] ] } },
{ "type": "Feature", "properties": { "NO": 6524, "NAME": "Gaggenau-Bad Rothenfels", "typ": 3 }, "geometry": { "type": "MultiPolygon", "coordinates": [ [ [ [ 449213.136400000017602, 5410055.621799999848008 ], [ 449590.82929999998305, 5409818.011199999600649 ], [ 450026.499599999981001, 5409355.842000000178814 ], [ 450147.26390000001993, 5409126.060999999754131 ], [ 450016.518700000015087, 5408855.331399999558926 ], [ 449688.6471, 5408666.3388 ], [ 449405.798400000028778, 5408727.541299999691546 ], [ 449293.178200000023935, 5408691.2412 ], [ 449307.0415, 5408451.186599999666214 ], [ 449252.118599999987055, 5408291.727 ], [ 449272.587400000018533, 5408190.231800000183284 ], [ 449191.457400000013877, 5408089.657999999821186 ], [ 449142.0209, 5407946.136199999600649 ], [ 449093.31060000002617, 5407882.591300000436604 ], [ 448974.3013, 5407734.3673 ], [ 448898.360900000028778, 5407617.743900000117719 ], [ 448907.788899999985006, 5407479.006699999794364 ], [ 448821.6359, 5407415.801099999807775 ], [ 448820.756899999978486, 5407319.8169 ], [ 448723.610700000019278, 5407224.713399999774992 ], [ 448841.18939999997383, 5406945.5767 ], [ 448607.049300000013318, 5406828.1809 ], [ 448320.5099, 5407337.218000000342727 ], [ 448278.1236, 5407838.318199999630451 ], [ 448173.830200000025798, 5407949.151700000278652 ], [ 447736.104600000020582, 5408419.059100000187755 ], [ 447553.043200000014622, 5408615.256799999624491 ], [ 447711.907300000020768, 5408621.5504 ], [ 447835.190400000021327, 5408897.096900000236928 ], [ 447960.299300000013318, 5408698.697300000116229 ], [ 448158.108699999982491, 5408755.796 ], [ 448643.2771, 5409518.8279 ], [ 448568.363399999972899, 5409611.27240000013262 ], [ 449213.136400000017602, 5410055.621799999848008 ] ] ] ] } },
{ "type": "Feature", "properties": { "NO": 6533, "NAME": "Gaggenau-Oberweier", "typ": 3 }, "geometry": { "type": "MultiPolygon", "coordinates": [ [ [ [ 449068.0538, 5412424.567699999548495 ], [ 449075.3407, 5412410.718999999575317 ], [ 449199.9167, 5412286.301599999889731 ], [ 449485.585299999976996, 5411964.224999999627471 ], [ 449801.971599999989849, 5411848.7813 ], [ 450270.478899999987334, 5411582.49100000038743 ], [ 450449.5197, 5411725.196600000374019 ], [ 450563.267500000016298, 5411785.551300000399351 ], [ 450963.398999999975786, 5411778.837899999693036 ], [ 451052.764099999971222, 5411629.803399999625981 ], [ 451094.022, 5411553.930100000463426 ], [ 451122.935699999972712, 5411457.590699999593198 ], [ 451154.081300000019837, 5411403.725200000219047 ], [ 451179.0148, 5411362.523900000378489 ], [ 451209.8615, 5411326.1458 ], [ 451215.6986, 5411299.809000000357628 ], [ 451263.9045, 5411271.7034 ], [ 451327.92349999997532, 5411246.571399999782443 ], [ 451384.118200000026263, 5411215.985600000247359 ], [ 451437.394299999985378, 5411198.568300000391901 ], [ 451469.5135, 5411180.713000000454485 ], [ 451517.993100000021514, 5411139.384200000204146 ], [ 451577.0513, 5411098.274600000120699 ], [ 451619.639399999985471, 5411085.927500000223517 ], [ 451678.5881, 5411050.107300000265241 ], [ 451724.368200000026263, 5411011.36849999986589 ], [ 451783.535900000017136, 5410964.969600000418723 ], [ 451837.2499, 5410926.395100000314415 ], [ 451893.7181, 5410882.586199999786913 ], [ 451944.6779, 5410849.2462 ], [ 451995.473400000017136, 5410823.840099999681115 ], [ 452048.968500000017229, 5410795.844100000336766 ], [ 452104.670099999988452, 5410789.0598 ], [ 452171.278700000024401, 5410766.627000000327826 ], [ 452249.1226, 5410712.677299999631941 ], [ 452295.121600000013132, 5410663.359899999573827 ], [ 452327.678399999975227, 5410624.347500000149012 ], [ 452367.8405, 5410601.366899999789894 ], [ 452402.713500000012573, 5410578.276999999769032 ], [ 452453.946799999976065, 5410531.7138 ], [ 452510.852599999983795, 5410466.747700000181794 ], [ 452537.9557, 5410435.559600000269711 ], [ 452594.0403, 5410410.262900000438094 ], [ 452634.53090000001248, 5410371.41469999961555 ], [ 452180.927299999981187, 5409898.700799999758601 ], [ 451460.348799999977928, 5409431.8926 ], [ 450692.578099999984261, 5409231.6568 ], [ 450026.499599999981001, 5409355.842000000178814 ], [ 449590.82929999998305, 5409818.011199999600649 ], [ 449213.136400000017602, 5410055.621799999848008 ], [ 448529.78000000002794, 5410025.4611 ], [ 448392.459199999982957, 5410330.606999999843538 ], [ 448225.136300000012852, 5410298.1398 ], [ 448065.855700000014622, 5410504.833200000226498 ], [ 447870.462500000023283, 5410475.783699999563396 ], [ 447541.309300000022631, 5410772.95380000025034 ], [ 448257.659700000018347, 5411044.79700000025332 ], [ 448421.394900000013877, 5411588.1804 ], [ 448697.339800000016112, 5411831.894899999722838 ], [ 448618.6164, 5412136.278900000266731 ], [ 448615.026000000012573, 5412150.1612 ], [ 448596.240899999975227, 5412222.793999999761581 ], [ 449068.0538, 5412424.567699999548495 ] ] ] ] } },
{ "type": "Feature", "properties": { "NO": 6650, "NAME": "BAD,", "typ": 3 }, "geometry": { "type": "MultiPolygon", "coordinates": [ [ [ [ 438848.3442, 5407650.561599999666214 ], [ 439482.392, 5408224.726599999703467 ], [ 439666.260599999979604, 5408397.0756 ], [ 439927.985600000014529, 5408642.402300000190735 ], [ 440064.5307, 5408769.343999999575317 ], [ 440373.053000000014435, 5409062.992700000293553 ], [ 440464.076599999971222, 5409153.105899999849498 ], [ 440553.0198, 5409240.196600000374019 ], [ 440738.488499999977648, 5409421.801699999719858 ], [ 440629.961200000019744, 5409543.544700000435114 ], [ 440438.3078, 5409719.5597 ], [ 440357.7584, 5409782.020499999634922 ], [ 440262.4778, 5409855.9041 ], [ 440124.278799999970943, 5409830.6579 ], [ 439737.4792, 5409759.996500000357628 ], [ 439538.524199999985285, 5409709.862800000235438 ], [ 439179.6802, 5409606.40639999974519 ], [ 438835.4742, 5409472.253899999894202 ], [ 438806.189699999988079, 5409341.647300000302494 ], [ 438741.0023, 5409158.295400000177324 ], [ 438668.321799999976065, 5409046.786600000225008 ], [ 438540.603699999977835, 5408937.133399999700487 ], [ 438307.079000000027008, 5409299.271999999880791 ], [ 438562.284900000027847, 5409481.5746 ], [ 438310.110900000028778, 5409586.330500000156462 ], [ 438601.8665, 5409838.392300000414252 ], [ 438475.191999999980908, 5410255.7538 ], [ 438404.421299999987241, 5410485.280299999751151 ], [ 438119.939699999988079, 5410412.3668 ], [ 438032.4545, 5410820.544800000265241 ], [ 438254.915900000021793, 5410750.17 ], [ 438336.379000000015367, 5410727.863800000399351 ], [ 438437.293, 5410731.961500000208616 ], [ 438579.419799999974202, 5410773.9156 ], [ 438688.9536, 5410748.192499999888241 ], [ 438803.815300000016578, 5410658.580799999646842 ], [ 438866.884399999980815, 5410510.8931 ], [ 438879.636300000012852, 5410234.161100000143051 ], [ 438945.124499999976251, 5410162.523199999704957 ], [ 439010.8874, 5410173.889999999664724 ], [ 439111.201, 5410254.974000000394881 ], [ 439734.986299999989569, 5410264.9375 ], [ 439782.2512, 5410323.504800000227988 ], [ 439817.70529999997234, 5410374.65500000026077 ], [ 439942.226499999989755, 5410253.244 ], [ 440034.237299999978859, 5410179.391200000420213 ], [ 440175.408, 5410096.818099999800324 ], [ 440247.246099999989383, 5410059.584499999880791 ], [ 440391.781399999978021, 5409985.588600000366569 ], [ 440551.117199999978766, 5409824.901600000448525 ], [ 440785.828700000012759, 5409549.782800000160933 ], [ 440904.784600000013597, 5409359.2577 ], [ 441052.961000000010245, 5409254.338100000284612 ], [ 441164.803699999989476, 5409213.6623 ], [ 441324.292200000025332, 5409189.97580000013113 ], [ 441372.3209, 5409332.9704 ], [ 441418.415700000012293, 5409183.931099999696016 ], [ 441477.863399999972899, 5409114.167399999685585 ], [ 441502.232000000018161, 5408855.67960000038147 ], [ 441511.055799999972805, 5408767.865000000223517 ], [ 441812.384499999985565, 5408896.1206 ], [ 441929.870899999979883, 5408872.5614 ], [ 442092.6544, 5408930.940600000321865 ], [ 442185.9889, 5408962.877999999560416 ], [ 442276.615, 5408354.7763 ], [ 442298.8565, 5408135.324300000444055 ], [ 442265.4178, 5407889.218999999575317 ], [ 442239.541000000026543, 5407627.6206 ], [ 442128.29739999998128, 5407328.381 ], [ 442048.5796, 5407090.423600000329316 ], [ 441811.5513, 5406584.474399999715388 ], [ 441480.237499999988358, 5405933.091699999757111 ], [ 441274.279099999985192, 5405602.941999999806285 ], [ 441134.60999999998603, 5405397.380900000222027 ], [ 440763.887800000025891, 5404754.4605 ], [ 440745.683000000019092, 5404832.277900000102818 ], [ 440715.243200000026263, 5404947.018000000156462 ], [ 440652.358, 5404987.138799999840558 ], [ 440704.754000000015367, 5405077.3257 ], [ 440688.17239999998128, 5405272.752999999560416 ], [ 440704.8969, 5405463.950500000268221 ], [ 440559.946, 5405599.619 ], [ 440340.049899999983609, 5405755.811599999666214 ], [ 440112.169899999978952, 5405904.204800000414252 ], [ 439954.9964, 5406004.5082 ], [ 439748.4876, 5406298.627899999730289 ], [ 439511.6225, 5406028.781600000336766 ], [ 439237.443900000012945, 5405685.045099999755621 ], [ 438961.560300000011921, 5405896.078599999658763 ], [ 438862.130300000018906, 5405989.619699999690056 ], [ 438746.596399999980349, 5406099.496600000187755 ], [ 438495.2269, 5406406.25870000012219 ], [ 438610.762899999972433, 5406572.655299999751151 ], [ 438873.8665, 5407000.111600000411272 ], [ 439147.65500000002794, 5407442.79 ], [ 439052.327, 5407506.806400000117719 ], [ 438848.3442, 5407650.561599999666214 ] ] ] ] } },
{ "type": "Feature", "properties": { "NO": 6660, "NAME": "BAD,", "typ": 3 }, "geometry": { "type": "MultiPolygon", "coordinates": [ [ [ [ 442346.016, 5408393.348000000230968 ], [ 442431.2596, 5408467.9846 ], [ 442530.249499999976251, 5408396.053600000217557 ], [ 442717.571500000020023, 5408259.935999999754131 ], [ 442781.296299999987241, 5408321.257399999536574 ], [ 442864.5969, 5408402.9846 ], [ 442925.116099999984726, 5408185.247600000351667 ], [ 442991.9987, 5408142.637799999676645 ], [ 443015.1715, 5408086.120500000193715 ], [ 443029.846399999980349, 5408005.427899999544024 ], [ 443061.617299999983516, 5407920.090300000272691 ], [ 443116.1665, 5407797.22690000012517 ], [ 443210.717699999979232, 5407674.194199999794364 ], [ 443344.1678, 5407555.968999999575317 ], [ 443511.386999999987893, 5407405.8103 ], [ 443552.986800000013318, 5407441.068599999882281 ], [ 443714.865999999979977, 5407232.676699999719858 ], [ 443828.992199999978766, 5407130.0499 ], [ 443957.509299999976065, 5407056.720599999651313 ], [ 443965.588600000017323, 5407052.888500000350177 ], [ 444047.401300000026822, 5407013.588399999774992 ], [ 444143.663600000028964, 5406952.588999999687076 ], [ 444244.318199999979697, 5406872.681599999777973 ], [ 444395.741199999989476, 5406803.827399999834597 ], [ 444511.9731, 5406744.2423 ], [ 444657.668300000019372, 5406662.269799999892712 ], [ 444756.783500000019558, 5406608.32909999974072 ], [ 444860.6435, 5406518.488599999807775 ], [ 444930.627099999983329, 5406470.943099999800324 ], [ 444954.674, 5406420.44440000038594 ], [ 444957.3369, 5406388.5011 ], [ 444960.854, 5406363.5751 ], [ 444961.978, 5406357.598799999803305 ], [ 444965.287699999986216, 5406342.668200000189245 ], [ 444978.215399999986403, 5406297.938400000333786 ], [ 444993.1629, 5406252.250799999572337 ], [ 445012.0256, 5406210.644100000150502 ], [ 445033.907400000025518, 5406168.100200000219047 ], [ 445058.704900000011548, 5406129.61670000012964 ], [ 445078.2144, 5406105.022599999792874 ], [ 445095.0208, 5405873.382500000298023 ], [ 445231.6873, 5405689.394000000320375 ], [ 445263.401200000022072, 5405436.064399999566376 ], [ 445313.802299999981187, 5405302.179399999789894 ], [ 445282.99, 5405129.56969999987632 ], [ 445222.661000000021886, 5405023.074799999594688 ], [ 445225.8139, 5404871.14850000012666 ], [ 445184.173, 5404850.5444 ], [ 444104.855700000014622, 5404316.6256 ], [ 444062.1582, 5404399.912899999879301 ], [ 443980.6447, 5404558.55489999987185 ], [ 443870.6873, 5404642.5143 ], [ 443653.665800000017043, 5404703.879200000315905 ], [ 443507.588700000022072, 5404736.9167 ], [ 443424.5795, 5404745.646800000220537 ], [ 443373.6628, 5404797.45299999974668 ], [ 443258.881999999983236, 5404794.67090000025928 ], [ 443156.211300000024494, 5404815.440700000151992 ], [ 443058.060300000011921, 5404891.4019 ], [ 442916.431099999987055, 5404971.752899999730289 ], [ 442751.754000000015367, 5405119.411600000225008 ], [ 442618.614200000010896, 5405254.912399999797344 ], [ 442506.1813, 5405350.088999999687076 ], [ 442474.815899999986868, 5405378.026999999769032 ], [ 442448.462400000018533, 5405508.4835 ], [ 442409.5516, 5405572.003200000151992 ], [ 442282.99920000002021, 5405577.252999999560416 ], [ 442172.474999999976717, 5405602.064399999566376 ], [ 442071.619499999971595, 5405589.114699999801815 ], [ 441934.376800000027288, 5405533.52309999987483 ], [ 441755.495400000014342, 5405457.170199999585748 ], [ 441667.5921, 5405370.6091 ], [ 441595.4744, 5405284.569500000216067 ], [ 441451.0672, 5405096.709599999710917 ], [ 441346.9057, 5404996.3586 ], [ 441228.453099999984261, 5404982.865000000223517 ], [ 441266.261899999983143, 5405100.4254 ], [ 441311.495799999975134, 5405233.799700000323355 ], [ 441323.885799999989104, 5405370.247100000269711 ], [ 441311.680400000012014, 5405512.412200000137091 ], [ 441274.279099999985192, 5405602.941999999806285 ], [ 441480.237499999988358, 5405933.091699999757111 ], [ 441811.5513, 5406584.474399999715388 ], [ 442048.5796, 5407090.423600000329316 ], [ 442128.29739999998128, 5407328.381 ], [ 442239.541000000026543, 5407627.6206 ], [ 442265.4178, 5407889.218999999575317 ], [ 442298.8565, 5408135.324300000444055 ], [ 442276.615, 5408354.7763 ], [ 442346.016, 5408393.348000000230968 ] ] ] ] } },
{ "type": "Feature", "properties": { "NO": 6711, "NAME": "Iffezheim", "typ": 3 }, "geometry": { "type": "MultiPolygon", "coordinates": [ [ [ [ 434514.1705, 5409298.427500000223517 ], [ 435179.6975, 5409165.621899999678135 ], [ 435538.7353, 5409001.517300000414252 ], [ 435763.0527, 5408745.671 ], [ 435835.0405, 5408611.5433 ], [ 435976.1617, 5408676.5746 ], [ 436125.182299999985844, 5408848.1563 ], [ 436303.430400000012014, 5408652.838200000114739 ], [ 436535.978400000021793, 5408430.881199999712408 ], [ 436747.2646, 5408229.1842 ], [ 436861.142500000016298, 5408129.608199999667704 ], [ 436931.988100000016857, 5408098.775299999862909 ], [ 437044.087500000023283, 5408083.8597 ], [ 437207.685999999986961, 5408021.952600000426173 ], [ 437270.4742, 5408004.865600000135601 ], [ 437446.972499999974389, 5407871.8311 ], [ 437626.156299999973271, 5407733.308500000275671 ], [ 437856.978599999973085, 5407558.7176 ], [ 437424.748199999972712, 5407171.017300000414252 ], [ 436714.913999999989755, 5406520.295400000177324 ], [ 436011.2747, 5406083.504800000227988 ], [ 435893.356900000013411, 5406404.133899999782443 ], [ 434686.809699999983422, 5408046.816700000315905 ], [ 434770.6495, 5408289.858 ], [ 434814.1579, 5408487.610600000247359 ], [ 434378.4707, 5408566.4836 ], [ 434416.4802, 5408771.53969999961555 ], [ 434417.3261, 5408776.064500000327826 ], [ 434514.1705, 5409298.427500000223517 ] ] ] ] } },
{ "type": "Feature", "properties": { "NO": 6712, "NAME": "Iffezheim", "typ": 3 }, "geometry": { "type": "MultiPolygon", "coordinates": [ [ [ [ 435126.3883, 5411449.1014 ], [ 435674.060300000011921, 5411167.608300000429153 ], [ 435773.979, 5411133.968299999833107 ], [ 436132.922199999971781, 5411135.041299999691546 ], [ 436174.04680000001099, 5411032.896999999880791 ], [ 436199.933100000023842, 5410944.3915 ], [ 436217.20409999997355, 5410877.282100000418723 ], [ 435912.777300000016112, 5410757.462799999862909 ], [ 435696.547299999976531, 5410335.966400000266731 ], [ 435945.1702, 5409729.143899999558926 ], [ 435867.799799999978859, 5409410.537700000219047 ], [ 436503.603, 5409515.763399999588728 ], [ 436575.497800000011921, 5409184.263399999588728 ], [ 437014.81449999997858, 5408976.404699999839067 ], [ 437506.01500000001397, 5409110.618300000205636 ], [ 437560.6877, 5409366.751199999824166 ], [ 437393.164899999974295, 5409536.264999999664724 ], [ 437866.6703, 5409752.108300000429153 ], [ 437740.637999999977183, 5410138.483300000429153 ], [ 437780.046199999982491, 5410359.300499999895692 ], [ 437514.2977, 5410587.772900000214577 ], [ 437532.237199999974109, 5410831.144399999640882 ], [ 437866.9717, 5410988.10329999960959 ], [ 437969.2596, 5410974.230000000447035 ], [ 438078.3346, 5410922.497999999672174 ], [ 438254.29470000002766, 5410828.156499999575317 ], [ 438254.915900000021793, 5410750.17 ], [ 438032.4545, 5410820.544800000265241 ], [ 438119.939699999988079, 5410412.3668 ], [ 438404.421299999987241, 5410485.280299999751151 ], [ 438475.191999999980908, 5410255.7538 ], [ 438601.8665, 5409838.392300000414252 ], [ 438310.110900000028778, 5409586.330500000156462 ], [ 438562.284900000027847, 5409481.5746 ], [ 438307.079000000027008, 5409299.271999999880791 ], [ 438540.603699999977835, 5408937.133399999700487 ], [ 438668.321799999976065, 5409046.786600000225008 ], [ 438741.0023, 5409158.295400000177324 ], [ 438806.189699999988079, 5409341.647300000302494 ], [ 438835.4742, 5409472.253899999894202 ], [ 439179.6802, 5409606.40639999974519 ], [ 439538.524199999985285, 5409709.862800000235438 ], [ 439737.4792, 5409759.996500000357628 ], [ 440124.278799999970943, 5409830.6579 ], [ 440262.4778, 5409855.9041 ], [ 440357.7584, 5409782.020499999634922 ], [ 440438.3078, 5409719.5597 ], [ 440629.961200000019744, 5409543.544700000435114 ], [ 440738.488499999977648, 5409421.801699999719858 ], [ 440553.0198, 5409240.196600000374019 ], [ 440464.076599999971222, 5409153.105899999849498 ], [ 440373.053000000014435, 5409062.992700000293553 ], [ 440064.5307, 5408769.343999999575317 ], [ 439927.985600000014529, 5408642.402300000190735 ], [ 439666.260599999979604, 5408397.0756 ], [ 439482.392, 5408224.726599999703467 ], [ 438848.3442, 5407650.561599999666214 ], [ 438591.784099999989849, 5407720.2873 ], [ 438212.1877, 5407874.2286 ], [ 437856.978599999973085, 5407558.7176 ], [ 437626.156299999973271, 5407733.308500000275671 ], [ 437446.972499999974389, 5407871.8311 ], [ 437270.4742, 5408004.865600000135601 ], [ 437207.685999999986961, 5408021.952600000426173 ], [ 437044.087500000023283, 5408083.8597 ], [ 436931.988100000016857, 5408098.775299999862909 ], [ 436861.142500000016298, 5408129.608199999667704 ], [ 436747.2646, 5408229.1842 ], [ 436535.978400000021793, 5408430.881199999712408 ], [ 436303.430400000012014, 5408652.838200000114739 ], [ 436125.182299999985844, 5408848.1563 ], [ 435976.1617, 5408676.5746 ], [ 435835.0405, 5408611.5433 ], [ 435763.0527, 5408745.671 ], [ 435538.7353, 5409001.517300000414252 ], [ 435179.6975, 5409165.621899999678135 ], [ 434514.1705, 5409298.427500000223517 ], [ 434753.7095, 5410280.347900000400841 ], [ 435126.3883, 5411449.1014 ] ] ] ] } },
{ "type": "Feature", "properties": { "NO": 6715, "NAME": "Iffezheim_GE", "typ": 3 }, "geometry": { "type": "MultiPolygon", "coordinates": [ [ [ [ 437856.978599999973085, 5407558.7176 ], [ 438212.1877, 5407874.2286 ], [ 438591.784099999989849, 5407720.2873 ], [ 438848.3442, 5407650.561599999666214 ], [ 439052.327, 5407506.806400000117719 ], [ 439147.65500000002794, 5407442.79 ], [ 438873.8665, 5407000.111600000411272 ], [ 438610.762899999972433, 5406572.655299999751151 ], [ 438495.2269, 5406406.25870000012219 ], [ 438746.596399999980349, 5406099.496600000187755 ], [ 438594.48609999998007, 5405720.348299999721348 ], [ 437307.831499999971129, 5404468.3646 ], [ 437048.863499999977648, 5404709.974000000394881 ], [ 436829.8393, 5404985.6721 ], [ 436251.6151, 5405795.0696 ], [ 436206.0553, 5405985.654699999839067 ], [ 436011.2747, 5406083.504800000227988 ], [ 436714.913999999989755, 5406520.295400000177324 ], [ 437424.748199999972712, 5407171.017300000414252 ], [ 437856.978599999973085, 5407558.7176 ] ] ] ] } }
]
}
